{
"type": "FeatureCollection",
"name": "CBD_Bus",
"crs": { "type": "name", "properties": { "name": "urn:ogc:def:crs:EPSG::3414" } },
"features": [
{ "type": "Feature", "properties": { "BUS_STOP_N": "03021", "LOC_DESC": "PRUDENTIAL TWR" }, "geometry": { "type": "Point", "coordinates": [ 29851.191700000315905, 29437.517300000414252 ] } },
{ "type": "Feature", "properties": { "BUS_STOP_N": "03239", "LOC_DESC": "SHENTON WAY TER" }, "geometry": { "type": "Point", "coordinates": [ 29738.603699999861419, 28401.388000000268221 ] } },
{ "type": "Feature", "properties": { "BUS_STOP_N": "05629", "LOC_DESC": "OPP STH PT" }, "geometry": { "type": "Point", "coordinates": [ 28958.933500000275671, 28412.767799999564886 ] } },
{ "type": "Feature", "properties": { "BUS_STOP_N": "03111", "LOC_DESC": "AFT CAPITAL TWR" }, "geometry": { "type": "Point", "coordinates": [ 29658.707100000232458, 28942.124900000169873 ] } },
{ "type": "Feature", "properties": { "BUS_STOP_N": "03381", "LOC_DESC": "THE SAIL" }, "geometry": { "type": "Point", "coordinates": [ 30200.382100000046194, 29339.650100000202656 ] } },
{ "type": "Feature", "properties": { "BUS_STOP_N": "03529", "LOC_DESC": "DOWNTOWN STN" }, "geometry": { "type": "Point", "coordinates": [ 30157.133399999700487, 29094.637099999934435 ] } },
{ "type": "Feature", "properties": { "BUS_STOP_N": "03011", "LOC_DESC": "FULLERTON SQ" }, "geometry": { "type": "Point", "coordinates": [ 30231.338100000284612, 29792.248800000175834 ] } },
{ "type": "Feature", "properties": { "BUS_STOP_N": "03391", "LOC_DESC": "MARINA BAY FINANCIAL CTR" }, "geometry": { "type": "Point", "coordinates": [ 30419.745000000111759, 29199.540599999949336 ] } },
{ "type": "Feature", "properties": { "BUS_STOP_N": "05419", "LOC_DESC": "THE AMARA" }, "geometry": { "type": "Point", "coordinates": [ 29099.143899999558926, 28588.41609999909997 ] } },
{ "type": "Feature", "properties": { "BUS_STOP_N": "03501", "LOC_DESC": "MARINA BAY SANDS THEATRE" }, "geometry": { "type": "Point", "coordinates": [ 31041.681499999947846, 29741.898499999195337 ] } },
{ "type": "Feature", "properties": { "BUS_STOP_N": "03071", "LOC_DESC": "OPP SO SOFITEL S'PORE" }, "geometry": { "type": "Point", "coordinates": [ 29805.26659999974072, 29183.209400000050664 ] } },
{ "type": "Feature", "properties": { "BUS_STOP_N": "05319", "LOC_DESC": "OCBC CTR" }, "geometry": { "type": "Point", "coordinates": [ 29765.405100000090897, 29652.870100000873208 ] } },
{ "type": "Feature", "properties": { "BUS_STOP_N": "05411", "LOC_DESC": "TG PAGAR PLAZA" }, "geometry": { "type": "Point", "coordinates": [ 29091.544700000435114, 28642.799300000071526 ] } },
{ "type": "Feature", "properties": { "BUS_STOP_N": "03059", "LOC_DESC": "ONE RAFFLES QUAY" }, "geometry": { "type": "Point", "coordinates": [ 30011.702200000174344, 29279.59320000000298 ] } },
{ "type": "Feature", "properties": { "BUS_STOP_N": "05009", "LOC_DESC": "OPP OCBC CTR" }, "geometry": { "type": "Point", "coordinates": [ 29782.940299999900162, 29810.89919999986887 ] } },
{ "type": "Feature", "properties": { "BUS_STOP_N": "03219", "LOC_DESC": "AFT SHENTON WAY" }, "geometry": { "type": "Point", "coordinates": [ 29518.459699999541044, 28407.236800000071526 ] } },
{ "type": "Feature", "properties": { "BUS_STOP_N": "03223", "LOC_DESC": "TANJONG PAGAR STN EXIT C" }, "geometry": { "type": "Point", "coordinates": [ 29454.54590000025928, 28698.992200000211596 ] } },
{ "type": "Feature", "properties": { "BUS_STOP_N": "03031", "LOC_DESC": "RAFFLES PL STN EXIT F" }, "geometry": { "type": "Point", "coordinates": [ 29958.852699999697506, 29400.476500000804663 ] } },
{ "type": "Feature", "properties": { "BUS_STOP_N": "03211", "LOC_DESC": "BEF SHENTON WAY" }, "geometry": { "type": "Point", "coordinates": [ 29481.919300000183284, 28390.202299999073148 ] } },
{ "type": "Feature", "properties": { "BUS_STOP_N": "03041", "LOC_DESC": "TELOK AYER STN EXIT A" }, "geometry": { "type": "Point", "coordinates": [ 29728.501799999736249, 29372.828700000420213 ] } },
{ "type": "Feature", "properties": { "BUS_STOP_N": "03241", "LOC_DESC": "MAPLETREE ANSON" }, "geometry": { "type": "Point", "coordinates": [ 29350.291199999861419, 28570.951500000432134 ] } },
{ "type": "Feature", "properties": { "BUS_STOP_N": "03222", "LOC_DESC": "HUB SYNERGY PT" }, "geometry": { "type": "Point", "coordinates": [ 29291.468000000342727, 28500.547900000587106 ] } },
{ "type": "Feature", "properties": { "BUS_STOP_N": "03569", "LOC_DESC": null }, "geometry": { "type": "Point", "coordinates": [ 30277.552500000223517, 28664.549399999901652 ] } },
{ "type": "Feature", "properties": { "BUS_STOP_N": "03561", "LOC_DESC": null }, "geometry": { "type": "Point", "coordinates": [ 30305.323200000450015, 28673.524100000038743 ] } },
{ "type": "Feature", "properties": { "BUS_STOP_N": "05269", "LOC_DESC": "MAXWELL RD FC" }, "geometry": { "type": "Point", "coordinates": [ 29247.190000000409782, 29255.243699999526143 ] } },
{ "type": "Feature", "properties": { "BUS_STOP_N": "03151", "LOC_DESC": "AFT TELOK AYER ST" }, "geometry": { "type": "Point", "coordinates": [ 29604.647599999792874, 29040.901399999856949 ] } },
{ "type": "Feature", "properties": { "BUS_STOP_N": "03217", "LOC_DESC": "AFT STRAITS BLVD" }, "geometry": { "type": "Point", "coordinates": [ 29614.298999999649823, 28649.75029999949038 ] } },
{ "type": "Feature", "properties": { "BUS_STOP_N": "05651", "LOC_DESC": "OPP FUJI XEROX TWRS" }, "geometry": { "type": "Point", "coordinates": [ 29086.052699999883771, 28417.890399999916553 ] } },
{ "type": "Feature", "properties": { "BUS_STOP_N": "03509", "LOC_DESC": "BAYFRONT STN EXIT B/MBS" }, "geometry": { "type": "Point", "coordinates": [ 30978.92090000025928, 29508.460999999195337 ] } },
{ "type": "Feature", "properties": { "BUS_STOP_N": "03519", "LOC_DESC": "BAYFRONT STN EXIT A" }, "geometry": { "type": "Point", "coordinates": [ 30837.06900000013411, 29298.043999999761581 ] } },
{ "type": "Feature", "properties": { "BUS_STOP_N": "03511", "LOC_DESC": "AFT BAYFRONT STN EXIT E" }, "geometry": { "type": "Point", "coordinates": [ 30857.991899999789894, 29383.342800000682473 ] } },
{ "type": "Feature", "properties": { "BUS_STOP_N": "03019", "LOC_DESC": "OUE BAYFRONT" }, "geometry": { "type": "Point", "coordinates": [ 30203.759899999946356, 29620.417199999094009 ] } },
{ "type": "Feature", "properties": { "BUS_STOP_N": "03539", "LOC_DESC": "Marina Bay Stn" }, "geometry": { "type": "Point", "coordinates": [ 30477.714900000020862, 28886.390399999916553 ] } },
{ "type": "Feature", "properties": { "BUS_STOP_N": "05431", "LOC_DESC": "TOWER 15" }, "geometry": { "type": "Point", "coordinates": [ 28959.697200000286102, 28497.808100000023842 ] } },
{ "type": "Feature", "properties": { "BUS_STOP_N": "03129", "LOC_DESC": "UIC BLDG" }, "geometry": { "type": "Point", "coordinates": [ 29827.196299999952316, 28982.180700000375509 ] } },
{ "type": "Feature", "properties": { "BUS_STOP_N": "03218", "LOC_DESC": "OPP MAS BLDG" }, "geometry": { "type": "Point", "coordinates": [ 29521.54839999973774, 28521.999500000849366 ] } }
]
}
