{
"type": "FeatureCollection",
"name": "CBD_MRT",
"crs": { "type": "name", "properties": { "name": "urn:ogc:def:crs:OGC:1.3:CRS84" } },
"features": [
{ "type": "Feature", "properties": { "station_code": "CE1", "station_name": "Bayfront", "all_codes": "CE1|DT16", "n_exit_points": 5, "mode": "MRT" }, "geometry": { "type": "Point", "coordinates": [ 103.859204565483509, 1.282089309786341 ] } },
{ "type": "Feature", "properties": { "station_code": "DT16", "station_name": "Bayfront", "all_codes": "CE1|DT16", "n_exit_points": 5, "mode": "MRT" }, "geometry": { "type": "Point", "coordinates": [ 103.859204565483509, 1.282089309786341 ] } },
{ "type": "Feature", "properties": { "station_code": "DT17", "station_name": "Downtown", "all_codes": "DT17", "n_exit_points": 6, "mode": "MRT" }, "geometry": { "type": "Point", "coordinates": [ 103.852771055402116, 1.279553222177013 ] } },
{ "type": "Feature", "properties": { "station_code": "CE2", "station_name": "Marina Bay", "all_codes": "CE2|NS27|TE20", "n_exit_points": 5, "mode": "MRT" }, "geometry": { "type": "Point", "coordinates": [ 103.855130690116766, 1.275451160751061 ] } },
{ "type": "Feature", "properties": { "station_code": "NS27", "station_name": "Marina Bay", "all_codes": "CE2|NS27|TE20", "n_exit_points": 5, "mode": "MRT" }, "geometry": { "type": "Point", "coordinates": [ 103.855130690116766, 1.275451160751061 ] } },
{ "type": "Feature", "properties": { "station_code": "TE20", "station_name": "Marina Bay", "all_codes": "CE2|NS27|TE20", "n_exit_points": 5, "mode": "MRT" }, "geometry": { "type": "Point", "coordinates": [ 103.855130690116766, 1.275451160751061 ] } },
{ "type": "Feature", "properties": { "station_code": "TE18", "station_name": "Maxwell", "all_codes": "TE18", "n_exit_points": 3, "mode": "MRT" }, "geometry": { "type": "Point", "coordinates": [ 103.843992059426611, 1.280715071411481 ] } },
{ "type": "Feature", "properties": { "station_code": "EW14", "station_name": "Raffles Place", "all_codes": "EW14|NS26", "n_exit_points": 10, "mode": "MRT" }, "geometry": { "type": "Point", "coordinates": [ 103.851414676294695, 1.283703781025636 ] } },
{ "type": "Feature", "properties": { "station_code": "NS26", "station_name": "Raffles Place", "all_codes": "EW14|NS26", "n_exit_points": 10, "mode": "MRT" }, "geometry": { "type": "Point", "coordinates": [ 103.851414676294695, 1.283703781025636 ] } },
{ "type": "Feature", "properties": { "station_code": "TE19", "station_name": "Shenton Way", "all_codes": "TE19", "n_exit_points": 6, "mode": "MRT" }, "geometry": { "type": "Point", "coordinates": [ 103.850935810076251, 1.277470581145047 ] } },
{ "type": "Feature", "properties": { "station_code": "EW15", "station_name": "Tanjong Pagar", "all_codes": "EW15", "n_exit_points": 9, "mode": "MRT" }, "geometry": { "type": "Point", "coordinates": [ 103.84643317490287, 1.276506255901992 ] } }
]
}
