{
"type": "FeatureCollection",
"name": "Clipped grids",
"crs": { "type": "name", "properties": { "name": "urn:ogc:def:crs:EPSG::3414" } },
"features": [
{ "type": "Feature", "properties": { "fid": 1, "id": 4, "left": 20657.1074, "top": 31076.416, "right": 20907.1074, "bottom": 30826.416, "row_index": 3, "col_index": 0 }, "geometry": { "type": "MultiPolygon", "coordinates": [ [ [ [ 20907.1074, 30955.323898637867387 ], [ 20907.1074, 30826.416000000001077 ], [ 20895.799689593171934, 30826.416000000001077 ], [ 20907.1074, 30955.323898637867387 ] ] ] ] } },
{ "type": "Feature", "properties": { "fid": 2, "id": 5, "left": 20657.1074, "top": 30826.416, "right": 20907.1074, "bottom": 30576.416, "row_index": 4, "col_index": 0 }, "geometry": { "type": "MultiPolygon", "coordinates": [ [ [ [ 20890.244496589937626, 30763.086799763146701 ], [ 20895.799689593171934, 30826.416000000001077 ], [ 20907.1074, 30826.416000000001077 ], [ 20907.1074, 30576.416000000001077 ], [ 20760.79836060195521, 30576.416000000001077 ], [ 20890.244496589937626, 30763.086799763146701 ] ] ] ] } },
{ "type": "Feature", "properties": { "fid": 3, "id": 6, "left": 20657.1074, "top": 30576.416, "right": 20907.1074, "bottom": 30326.416, "row_index": 5, "col_index": 0 }, "geometry": { "type": "MultiPolygon", "coordinates": [ [ [ [ 20657.108958364853606, 30426.888294944677909 ], [ 20760.79836060195521, 30576.416000000001077 ], [ 20907.1074, 30576.416000000001077 ], [ 20907.1074, 30339.051004640434257 ], [ 20657.108958364853606, 30426.888294944677909 ] ] ] ] } },
{ "type": "Feature", "properties": { "fid": 4, "id": 18, "left": 20907.1074, "top": 31826.416, "right": 21157.1074, "bottom": 31576.416, "row_index": 0, "col_index": 1 }, "geometry": { "type": "MultiPolygon", "coordinates": [ [ [ [ 21032.400312580837635, 31587.590532510374032 ], [ 21092.105755297016003, 31826.412303375087504 ], [ 21157.1074, 31795.260996138520568 ], [ 21157.1074, 31576.416000000001077 ], [ 21026.993280720980692, 31576.416000000001077 ], [ 21032.400312580837635, 31587.590532510374032 ] ] ] ] } },
{ "type": "Feature", "properties": { "fid": 5, "id": 19, "left": 20907.1074, "top": 31576.416, "right": 21157.1074, "bottom": 31326.416, "row_index": 1, "col_index": 1 }, "geometry": { "type": "MultiPolygon", "coordinates": [ [ [ [ 20947.10682298629763, 31411.317320681657293 ], [ 21026.993280720980692, 31576.416000000001077 ], [ 21157.1074, 31576.416000000001077 ], [ 21157.1074, 31326.416000000001077 ], [ 20939.659338715977356, 31326.416000000001077 ], [ 20947.10682298629763, 31411.317320681657293 ] ] ] ] } },
{ "type": "Feature", "properties": { "fid": 6, "id": 20, "left": 20907.1074, "top": 31326.416, "right": 21157.1074, "bottom": 31076.416, "row_index": 2, "col_index": 1 }, "geometry": { "type": "MultiPolygon", "coordinates": [ [ [ [ 20939.659338715977356, 31326.416000000001077 ], [ 21157.1074, 31326.416000000001077 ], [ 21157.1074, 31076.416000000001077 ], [ 20917.729514154572826, 31076.416000000001077 ], [ 20939.659338715977356, 31326.416000000001077 ] ] ] ] } },
{ "type": "Feature", "properties": { "fid": 7, "id": 21, "left": 20907.1074, "top": 31076.416, "right": 21157.1074, "bottom": 30826.416, "row_index": 3, "col_index": 1 }, "geometry": { "type": "MultiPolygon", "coordinates": [ [ [ [ 20917.729514154572826, 31076.416000000001077 ], [ 21157.1074, 31076.416000000001077 ], [ 21157.1074, 30826.416000000001077 ], [ 20907.1074, 30826.416000000001077 ], [ 20907.1074, 30955.323898637867387 ], [ 20917.729514154572826, 31076.416000000001077 ] ] ] ] } },
{ "type": "Feature", "properties": { "fid": 8, "id": 22, "left": 20907.1074, "top": 30826.416, "right": 21157.1074, "bottom": 30576.416, "row_index": 4, "col_index": 1 }, "geometry": { "type": "MultiPolygon", "coordinates": [ [ [ [ 20907.1074, 30826.416000000001077 ], [ 21157.1074, 30826.416000000001077 ], [ 21157.1074, 30576.416000000001077 ], [ 20907.1074, 30576.416000000001077 ], [ 20907.1074, 30826.416000000001077 ] ] ] ] } },
{ "type": "Feature", "properties": { "fid": 9, "id": 23, "left": 20907.1074, "top": 30576.416, "right": 21157.1074, "bottom": 30326.416, "row_index": 5, "col_index": 1 }, "geometry": { "type": "MultiPolygon", "coordinates": [ [ [ [ 20907.1074, 30339.051004640434257 ], [ 20907.1074, 30576.416000000001077 ], [ 21157.1074, 30576.416000000001077 ], [ 21157.1074, 30326.416000000001077 ], [ 20943.068567053538573, 30326.416000000001077 ], [ 20907.1074, 30339.051004640434257 ] ] ] ] } },
{ "type": "Feature", "properties": { "fid": 10, "id": 24, "left": 20907.1074, "top": 30326.416, "right": 21157.1074, "bottom": 30076.416, "row_index": 6, "col_index": 1 }, "geometry": { "type": "MultiPolygon", "coordinates": [ [ [ [ 20943.068567053538573, 30326.416000000001077 ], [ 21157.1074, 30326.416000000001077 ], [ 21157.1074, 30251.213166802590422 ], [ 20943.068567053538573, 30326.416000000001077 ] ] ] ] } },
{ "type": "Feature", "properties": { "fid": 11, "id": 35, "left": 21157.1074, "top": 31826.416, "right": 21407.1074, "bottom": 31576.416, "row_index": 0, "col_index": 2 }, "geometry": { "type": "MultiPolygon", "coordinates": [ [ [ [ 21407.1074, 31675.451307557148539 ], [ 21407.1074, 31576.416000000001077 ], [ 21157.1074, 31576.416000000001077 ], [ 21157.1074, 31795.260996138520568 ], [ 21407.1074, 31675.451307557148539 ] ] ] ] } },
{ "type": "Feature", "properties": { "fid": 12, "id": 36, "left": 21157.1074, "top": 31576.416, "right": 21407.1074, "bottom": 31326.416, "row_index": 1, "col_index": 2 }, "geometry": { "type": "MultiPolygon", "coordinates": [ [ [ [ 21157.1074, 31576.416000000001077 ], [ 21407.1074, 31576.416000000001077 ], [ 21407.1074, 31326.416000000001077 ], [ 21157.1074, 31326.416000000001077 ], [ 21157.1074, 31576.416000000001077 ] ] ] ] } },
{ "type": "Feature", "properties": { "fid": 13, "id": 37, "left": 21157.1074, "top": 31326.416, "right": 21407.1074, "bottom": 31076.416, "row_index": 2, "col_index": 2 }, "geometry": { "type": "MultiPolygon", "coordinates": [ [ [ [ 21157.1074, 31326.416000000001077 ], [ 21407.1074, 31326.416000000001077 ], [ 21407.1074, 31076.416000000001077 ], [ 21157.1074, 31076.416000000001077 ], [ 21157.1074, 31326.416000000001077 ] ] ] ] } },
{ "type": "Feature", "properties": { "fid": 14, "id": 38, "left": 21157.1074, "top": 31076.416, "right": 21407.1074, "bottom": 30826.416, "row_index": 3, "col_index": 2 }, "geometry": { "type": "MultiPolygon", "coordinates": [ [ [ [ 21157.1074, 31076.416000000001077 ], [ 21407.1074, 31076.416000000001077 ], [ 21407.1074, 30826.416000000001077 ], [ 21157.1074, 30826.416000000001077 ], [ 21157.1074, 31076.416000000001077 ] ] ] ] } },
{ "type": "Feature", "properties": { "fid": 15, "id": 39, "left": 21157.1074, "top": 30826.416, "right": 21407.1074, "bottom": 30576.416, "row_index": 4, "col_index": 2 }, "geometry": { "type": "MultiPolygon", "coordinates": [ [ [ [ 21157.1074, 30826.416000000001077 ], [ 21407.1074, 30826.416000000001077 ], [ 21407.1074, 30576.416000000001077 ], [ 21157.1074, 30576.416000000001077 ], [ 21157.1074, 30826.416000000001077 ] ] ] ] } },
{ "type": "Feature", "properties": { "fid": 16, "id": 40, "left": 21157.1074, "top": 30576.416, "right": 21407.1074, "bottom": 30326.416, "row_index": 5, "col_index": 2 }, "geometry": { "type": "MultiPolygon", "coordinates": [ [ [ [ 21157.1074, 30576.416000000001077 ], [ 21407.1074, 30576.416000000001077 ], [ 21407.1074, 30326.416000000001077 ], [ 21157.1074, 30326.416000000001077 ], [ 21157.1074, 30576.416000000001077 ] ] ] ] } },
{ "type": "Feature", "properties": { "fid": 17, "id": 41, "left": 21157.1074, "top": 30326.416, "right": 21407.1074, "bottom": 30076.416, "row_index": 6, "col_index": 2 }, "geometry": { "type": "MultiPolygon", "coordinates": [ [ [ [ 21157.1074, 30251.213166802590422 ], [ 21157.1074, 30326.416000000001077 ], [ 21407.1074, 30326.416000000001077 ], [ 21407.1074, 30163.375328964750224 ], [ 21157.1074, 30251.213166802590422 ] ] ] ] } },
{ "type": "Feature", "properties": { "fid": 18, "id": 52, "left": 21407.1074, "top": 31826.416, "right": 21657.1074, "bottom": 31576.416, "row_index": 0, "col_index": 3 }, "geometry": { "type": "MultiPolygon", "coordinates": [ [ [ [ 21502.936063510638633, 31629.526498227634875 ], [ 21591.453560556696175, 31576.416000000001077 ], [ 21407.1074, 31576.416000000001077 ], [ 21407.1074, 31675.451307557148539 ], [ 21502.936063510638633, 31629.526498227634875 ] ] ] ] } },
{ "type": "Feature", "properties": { "fid": 19, "id": 53, "left": 21407.1074, "top": 31576.416, "right": 21657.1074, "bottom": 31326.416, "row_index": 1, "col_index": 3 }, "geometry": { "type": "MultiPolygon", "coordinates": [ [ [ [ 21657.1074, 31537.023696334017586 ], [ 21657.1074, 31326.416000000001077 ], [ 21407.1074, 31326.416000000001077 ], [ 21407.1074, 31576.416000000001077 ], [ 21591.453560556696175, 31576.416000000001077 ], [ 21657.1074, 31537.023696334017586 ] ] ] ] } },
{ "type": "Feature", "properties": { "fid": 20, "id": 54, "left": 21407.1074, "top": 31326.416, "right": 21657.1074, "bottom": 31076.416, "row_index": 2, "col_index": 3 }, "geometry": { "type": "MultiPolygon", "coordinates": [ [ [ [ 21407.1074, 31326.416000000001077 ], [ 21657.1074, 31326.416000000001077 ], [ 21657.1074, 31076.416000000001077 ], [ 21407.1074, 31076.416000000001077 ], [ 21407.1074, 31326.416000000001077 ] ] ] ] } },
{ "type": "Feature", "properties": { "fid": 21, "id": 55, "left": 21407.1074, "top": 31076.416, "right": 21657.1074, "bottom": 30826.416, "row_index": 3, "col_index": 3 }, "geometry": { "type": "MultiPolygon", "coordinates": [ [ [ [ 21407.1074, 31076.416000000001077 ], [ 21657.1074, 31076.416000000001077 ], [ 21657.1074, 30826.416000000001077 ], [ 21407.1074, 30826.416000000001077 ], [ 21407.1074, 31076.416000000001077 ] ] ] ] } },
{ "type": "Feature", "properties": { "fid": 22, "id": 56, "left": 21407.1074, "top": 30826.416, "right": 21657.1074, "bottom": 30576.416, "row_index": 4, "col_index": 3 }, "geometry": { "type": "MultiPolygon", "coordinates": [ [ [ [ 21407.1074, 30826.416000000001077 ], [ 21657.1074, 30826.416000000001077 ], [ 21657.1074, 30576.416000000001077 ], [ 21407.1074, 30576.416000000001077 ], [ 21407.1074, 30826.416000000001077 ] ] ] ] } },
{ "type": "Feature", "properties": { "fid": 23, "id": 57, "left": 21407.1074, "top": 30576.416, "right": 21657.1074, "bottom": 30326.416, "row_index": 5, "col_index": 3 }, "geometry": { "type": "MultiPolygon", "coordinates": [ [ [ [ 21407.1074, 30576.416000000001077 ], [ 21657.1074, 30576.416000000001077 ], [ 21657.1074, 30326.416000000001077 ], [ 21407.1074, 30326.416000000001077 ], [ 21407.1074, 30576.416000000001077 ] ] ] ] } },
{ "type": "Feature", "properties": { "fid": 24, "id": 58, "left": 21407.1074, "top": 30326.416, "right": 21657.1074, "bottom": 30076.416, "row_index": 6, "col_index": 3 }, "geometry": { "type": "MultiPolygon", "coordinates": [ [ [ [ 21551.269040947609028, 30112.723941604777792 ], [ 21407.1074, 30163.375328964750224 ], [ 21407.1074, 30326.416000000001077 ], [ 21657.1074, 30326.416000000001077 ], [ 21657.1074, 30076.416000000001077 ], [ 21615.074908914826665, 30076.416000000001077 ], [ 21551.269040947609028, 30112.723941604777792 ] ] ] ] } },
{ "type": "Feature", "properties": { "fid": 25, "id": 59, "left": 21407.1074, "top": 30076.416, "right": 21657.1074, "bottom": 29826.416, "row_index": 7, "col_index": 3 }, "geometry": { "type": "MultiPolygon", "coordinates": [ [ [ [ 21615.074908914826665, 30076.416000000001077 ], [ 21657.1074, 30076.416000000001077 ], [ 21657.1074, 30052.4979297590653 ], [ 21615.074908914826665, 30076.416000000001077 ] ] ] ] } },
{ "type": "Feature", "properties": { "fid": 26, "id": 70, "left": 21657.1074, "top": 31576.416, "right": 21907.1074, "bottom": 31326.416, "row_index": 1, "col_index": 4 }, "geometry": { "type": "MultiPolygon", "coordinates": [ [ [ [ 21907.1074, 31387.023696334017586 ], [ 21907.1074, 31326.416000000001077 ], [ 21657.1074, 31326.416000000001077 ], [ 21657.1074, 31537.023696334017586 ], [ 21907.1074, 31387.023696334017586 ] ] ] ] } },
{ "type": "Feature", "properties": { "fid": 27, "id": 71, "left": 21657.1074, "top": 31326.416, "right": 21907.1074, "bottom": 31076.416, "row_index": 2, "col_index": 4 }, "geometry": { "type": "MultiPolygon", "coordinates": [ [ [ [ 21657.1074, 31326.416000000001077 ], [ 21907.1074, 31326.416000000001077 ], [ 21907.1074, 31076.416000000001077 ], [ 21657.1074, 31076.416000000001077 ], [ 21657.1074, 31326.416000000001077 ] ] ] ] } },
{ "type": "Feature", "properties": { "fid": 28, "id": 72, "left": 21657.1074, "top": 31076.416, "right": 21907.1074, "bottom": 30826.416, "row_index": 3, "col_index": 4 }, "geometry": { "type": "MultiPolygon", "coordinates": [ [ [ [ 21657.1074, 31076.416000000001077 ], [ 21907.1074, 31076.416000000001077 ], [ 21907.1074, 30826.416000000001077 ], [ 21657.1074, 30826.416000000001077 ], [ 21657.1074, 31076.416000000001077 ] ] ] ] } },
{ "type": "Feature", "properties": { "fid": 29, "id": 73, "left": 21657.1074, "top": 30826.416, "right": 21907.1074, "bottom": 30576.416, "row_index": 4, "col_index": 4 }, "geometry": { "type": "MultiPolygon", "coordinates": [ [ [ [ 21657.1074, 30826.416000000001077 ], [ 21907.1074, 30826.416000000001077 ], [ 21907.1074, 30576.416000000001077 ], [ 21657.1074, 30576.416000000001077 ], [ 21657.1074, 30826.416000000001077 ] ] ] ] } },
{ "type": "Feature", "properties": { "fid": 30, "id": 74, "left": 21657.1074, "top": 30576.416, "right": 21907.1074, "bottom": 30326.416, "row_index": 5, "col_index": 4 }, "geometry": { "type": "MultiPolygon", "coordinates": [ [ [ [ 21657.1074, 30576.416000000001077 ], [ 21907.1074, 30576.416000000001077 ], [ 21907.1074, 30326.416000000001077 ], [ 21657.1074, 30326.416000000001077 ], [ 21657.1074, 30576.416000000001077 ] ] ] ] } },
{ "type": "Feature", "properties": { "fid": 31, "id": 75, "left": 21657.1074, "top": 30326.416, "right": 21907.1074, "bottom": 30076.416, "row_index": 6, "col_index": 4 }, "geometry": { "type": "MultiPolygon", "coordinates": [ [ [ [ 21657.1074, 30326.416000000001077 ], [ 21907.1074, 30326.416000000001077 ], [ 21907.1074, 30076.416000000001077 ], [ 21657.1074, 30076.416000000001077 ], [ 21657.1074, 30326.416000000001077 ] ] ] ] } },
{ "type": "Feature", "properties": { "fid": 32, "id": 76, "left": 21657.1074, "top": 30076.416, "right": 21907.1074, "bottom": 29826.416, "row_index": 7, "col_index": 4 }, "geometry": { "type": "MultiPolygon", "coordinates": [ [ [ [ 21891.021441165863507, 29919.392031857150869 ], [ 21657.1074, 30052.4979297590653 ], [ 21657.1074, 30076.416000000001077 ], [ 21907.1074, 30076.416000000001077 ], [ 21907.1074, 29898.87874490352624 ], [ 21891.021441165863507, 29919.392031857150869 ] ] ] ] } },
{ "type": "Feature", "properties": { "fid": 33, "id": 87, "left": 21907.1074, "top": 31576.416, "right": 22157.1074, "bottom": 31326.416, "row_index": 1, "col_index": 5 }, "geometry": { "type": "MultiPolygon", "coordinates": [ [ [ [ 22008.120227223360416, 31326.416000000001077 ], [ 21907.1074, 31326.416000000001077 ], [ 21907.1074, 31387.023696334017586 ], [ 22008.120227223360416, 31326.416000000001077 ] ] ] ] } },
{ "type": "Feature", "properties": { "fid": 34, "id": 88, "left": 21907.1074, "top": 31326.416, "right": 22157.1074, "bottom": 31076.416, "row_index": 2, "col_index": 5 }, "geometry": { "type": "MultiPolygon", "coordinates": [ [ [ [ 22157.1074, 31237.023696334017586 ], [ 22157.1074, 31076.416000000001077 ], [ 21907.1074, 31076.416000000001077 ], [ 21907.1074, 31326.416000000001077 ], [ 22008.120227223360416, 31326.416000000001077 ], [ 22157.1074, 31237.023696334017586 ] ] ] ] } },
{ "type": "Feature", "properties": { "fid": 35, "id": 89, "left": 21907.1074, "top": 31076.416, "right": 22157.1074, "bottom": 30826.416, "row_index": 3, "col_index": 5 }, "geometry": { "type": "MultiPolygon", "coordinates": [ [ [ [ 21907.1074, 31076.416000000001077 ], [ 22157.1074, 31076.416000000001077 ], [ 22157.1074, 30826.416000000001077 ], [ 21907.1074, 30826.416000000001077 ], [ 21907.1074, 31076.416000000001077 ] ] ] ] } },
{ "type": "Feature", "properties": { "fid": 36, "id": 90, "left": 21907.1074, "top": 30826.416, "right": 22157.1074, "bottom": 30576.416, "row_index": 4, "col_index": 5 }, "geometry": { "type": "MultiPolygon", "coordinates": [ [ [ [ 21907.1074, 30826.416000000001077 ], [ 22157.1074, 30826.416000000001077 ], [ 22157.1074, 30576.416000000001077 ], [ 21907.1074, 30576.416000000001077 ], [ 21907.1074, 30826.416000000001077 ] ] ] ] } },
{ "type": "Feature", "properties": { "fid": 37, "id": 91, "left": 21907.1074, "top": 30576.416, "right": 22157.1074, "bottom": 30326.416, "row_index": 5, "col_index": 5 }, "geometry": { "type": "MultiPolygon", "coordinates": [ [ [ [ 21907.1074, 30576.416000000001077 ], [ 22157.1074, 30576.416000000001077 ], [ 22157.1074, 30326.416000000001077 ], [ 21907.1074, 30326.416000000001077 ], [ 21907.1074, 30576.416000000001077 ] ] ] ] } },
{ "type": "Feature", "properties": { "fid": 38, "id": 92, "left": 21907.1074, "top": 30326.416, "right": 22157.1074, "bottom": 30076.416, "row_index": 6, "col_index": 5 }, "geometry": { "type": "MultiPolygon", "coordinates": [ [ [ [ 21907.1074, 30326.416000000001077 ], [ 22157.1074, 30326.416000000001077 ], [ 22157.1074, 30076.416000000001077 ], [ 21907.1074, 30076.416000000001077 ], [ 21907.1074, 30326.416000000001077 ] ] ] ] } },
{ "type": "Feature", "properties": { "fid": 39, "id": 93, "left": 21907.1074, "top": 30076.416, "right": 22157.1074, "bottom": 29826.416, "row_index": 7, "col_index": 5 }, "geometry": { "type": "MultiPolygon", "coordinates": [ [ [ [ 21907.1074, 29898.87874490352624 ], [ 21907.1074, 30076.416000000001077 ], [ 22157.1074, 30076.416000000001077 ], [ 22157.1074, 29826.416000000001077 ], [ 21963.930703557438392, 29826.416000000001077 ], [ 21907.1074, 29898.87874490352624 ] ] ] ] } },
{ "type": "Feature", "properties": { "fid": 40, "id": 94, "left": 21907.1074, "top": 29826.416, "right": 22157.1074, "bottom": 29576.416, "row_index": 8, "col_index": 5 }, "geometry": { "type": "MultiPolygon", "coordinates": [ [ [ [ 21963.930703557438392, 29826.416000000001077 ], [ 22157.1074, 29826.416000000001077 ], [ 22157.1074, 29580.071405453971238 ], [ 21963.930703557438392, 29826.416000000001077 ] ] ] ] } },
{ "type": "Feature", "properties": { "fid": 41, "id": 105, "left": 22157.1074, "top": 31326.416, "right": 22407.1074, "bottom": 31076.416, "row_index": 2, "col_index": 6 }, "geometry": { "type": "MultiPolygon", "coordinates": [ [ [ [ 22407.1074, 31087.023696334013948 ], [ 22407.1074, 31076.416000000001077 ], [ 22157.1074, 31076.416000000001077 ], [ 22157.1074, 31237.023696334017586 ], [ 22407.1074, 31087.023696334013948 ] ] ] ] } },
{ "type": "Feature", "properties": { "fid": 42, "id": 106, "left": 22157.1074, "top": 31076.416, "right": 22407.1074, "bottom": 30826.416, "row_index": 3, "col_index": 6 }, "geometry": { "type": "MultiPolygon", "coordinates": [ [ [ [ 22157.1074, 31076.416000000001077 ], [ 22407.1074, 31076.416000000001077 ], [ 22407.1074, 30826.416000000001077 ], [ 22157.1074, 30826.416000000001077 ], [ 22157.1074, 31076.416000000001077 ] ] ] ] } },
{ "type": "Feature", "properties": { "fid": 43, "id": 107, "left": 22157.1074, "top": 30826.416, "right": 22407.1074, "bottom": 30576.416, "row_index": 4, "col_index": 6 }, "geometry": { "type": "MultiPolygon", "coordinates": [ [ [ [ 22157.1074, 30826.416000000001077 ], [ 22407.1074, 30826.416000000001077 ], [ 22407.1074, 30576.416000000001077 ], [ 22157.1074, 30576.416000000001077 ], [ 22157.1074, 30826.416000000001077 ] ] ] ] } },
{ "type": "Feature", "properties": { "fid": 44, "id": 108, "left": 22157.1074, "top": 30576.416, "right": 22407.1074, "bottom": 30326.416, "row_index": 5, "col_index": 6 }, "geometry": { "type": "MultiPolygon", "coordinates": [ [ [ [ 22157.1074, 30576.416000000001077 ], [ 22407.1074, 30576.416000000001077 ], [ 22407.1074, 30326.416000000001077 ], [ 22157.1074, 30326.416000000001077 ], [ 22157.1074, 30576.416000000001077 ] ] ] ] } },
{ "type": "Feature", "properties": { "fid": 45, "id": 109, "left": 22157.1074, "top": 30326.416, "right": 22407.1074, "bottom": 30076.416, "row_index": 6, "col_index": 6 }, "geometry": { "type": "MultiPolygon", "coordinates": [ [ [ [ 22157.1074, 30326.416000000001077 ], [ 22407.1074, 30326.416000000001077 ], [ 22407.1074, 30076.416000000001077 ], [ 22157.1074, 30076.416000000001077 ], [ 22157.1074, 30326.416000000001077 ] ] ] ] } },
{ "type": "Feature", "properties": { "fid": 46, "id": 110, "left": 22157.1074, "top": 30076.416, "right": 22407.1074, "bottom": 29826.416, "row_index": 7, "col_index": 6 }, "geometry": { "type": "MultiPolygon", "coordinates": [ [ [ [ 22157.1074, 30076.416000000001077 ], [ 22407.1074, 30076.416000000001077 ], [ 22407.1074, 29826.416000000001077 ], [ 22157.1074, 29826.416000000001077 ], [ 22157.1074, 30076.416000000001077 ] ] ] ] } },
{ "type": "Feature", "properties": { "fid": 47, "id": 111, "left": 22157.1074, "top": 29826.416, "right": 22407.1074, "bottom": 29576.416, "row_index": 8, "col_index": 6 }, "geometry": { "type": "MultiPolygon", "coordinates": [ [ [ [ 22157.1074, 29580.071405453971238 ], [ 22157.1074, 29826.416000000001077 ], [ 22407.1074, 29826.416000000001077 ], [ 22407.1074, 29576.416000000001077 ], [ 22159.973869025056047, 29576.416000000001077 ], [ 22157.1074, 29580.071405453971238 ] ] ] ] } },
{ "type": "Feature", "properties": { "fid": 48, "id": 112, "left": 22157.1074, "top": 29576.416, "right": 22407.1074, "bottom": 29326.416, "row_index": 9, "col_index": 6 }, "geometry": { "type": "MultiPolygon", "coordinates": [ [ [ [ 22200.921120026021526, 29524.198863402438292 ], [ 22159.973869025056047, 29576.416000000001077 ], [ 22407.1074, 29576.416000000001077 ], [ 22407.1074, 29326.416000000001077 ], [ 22342.808826379943639, 29326.416000000001077 ], [ 22200.921120026021526, 29524.198863402438292 ] ] ] ] } },
{ "type": "Feature", "properties": { "fid": 49, "id": 113, "left": 22157.1074, "top": 29326.416, "right": 22407.1074, "bottom": 29076.416, "row_index": 10, "col_index": 6 }, "geometry": { "type": "MultiPolygon", "coordinates": [ [ [ [ 22342.808826379943639, 29326.416000000001077 ], [ 22407.1074, 29326.416000000001077 ], [ 22407.1074, 29236.787685256895202 ], [ 22342.808826379943639, 29326.416000000001077 ] ] ] ] } },
{ "type": "Feature", "properties": { "fid": 50, "id": 122, "left": 22407.1074, "top": 31326.416, "right": 22657.1074, "bottom": 31076.416, "row_index": 2, "col_index": 7 }, "geometry": { "type": "MultiPolygon", "coordinates": [ [ [ [ 22424.786893890024658, 31076.416000000001077 ], [ 22407.1074, 31076.416000000001077 ], [ 22407.1074, 31087.023696334013948 ], [ 22424.786893890024658, 31076.416000000001077 ] ] ] ] } },
{ "type": "Feature", "properties": { "fid": 51, "id": 123, "left": 22407.1074, "top": 31076.416, "right": 22657.1074, "bottom": 30826.416, "row_index": 3, "col_index": 7 }, "geometry": { "type": "MultiPolygon", "coordinates": [ [ [ [ 22426.948867451494152, 31075.11881586311938 ], [ 22636.26228706373513, 30826.416000000001077 ], [ 22407.1074, 30826.416000000001077 ], [ 22407.1074, 31076.416000000001077 ], [ 22424.786893890024658, 31076.416000000001077 ], [ 22426.948867451494152, 31075.11881586311938 ] ] ] ] } },
{ "type": "Feature", "properties": { "fid": 52, "id": 124, "left": 22407.1074, "top": 30826.416, "right": 22657.1074, "bottom": 30576.416, "row_index": 4, "col_index": 7 }, "geometry": { "type": "MultiPolygon", "coordinates": [ [ [ [ 22657.1074, 30801.648174344878498 ], [ 22657.1074, 30576.416000000001077 ], [ 22407.1074, 30576.416000000001077 ], [ 22407.1074, 30826.416000000001077 ], [ 22636.26228706373513, 30826.416000000001077 ], [ 22657.1074, 30801.648174344878498 ] ] ] ] } },
{ "type": "Feature", "properties": { "fid": 53, "id": 125, "left": 22407.1074, "top": 30576.416, "right": 22657.1074, "bottom": 30326.416, "row_index": 5, "col_index": 7 }, "geometry": { "type": "MultiPolygon", "coordinates": [ [ [ [ 22407.1074, 30576.416000000001077 ], [ 22657.1074, 30576.416000000001077 ], [ 22657.1074, 30326.416000000001077 ], [ 22407.1074, 30326.416000000001077 ], [ 22407.1074, 30576.416000000001077 ] ] ] ] } },
{ "type": "Feature", "properties": { "fid": 54, "id": 126, "left": 22407.1074, "top": 30326.416, "right": 22657.1074, "bottom": 30076.416, "row_index": 6, "col_index": 7 }, "geometry": { "type": "MultiPolygon", "coordinates": [ [ [ [ 22407.1074, 30326.416000000001077 ], [ 22657.1074, 30326.416000000001077 ], [ 22657.1074, 30076.416000000001077 ], [ 22407.1074, 30076.416000000001077 ], [ 22407.1074, 30326.416000000001077 ] ] ] ] } },
{ "type": "Feature", "properties": { "fid": 55, "id": 127, "left": 22407.1074, "top": 30076.416, "right": 22657.1074, "bottom": 29826.416, "row_index": 7, "col_index": 7 }, "geometry": { "type": "MultiPolygon", "coordinates": [ [ [ [ 22407.1074, 30076.416000000001077 ], [ 22657.1074, 30076.416000000001077 ], [ 22657.1074, 29826.416000000001077 ], [ 22407.1074, 29826.416000000001077 ], [ 22407.1074, 30076.416000000001077 ] ] ] ] } },
{ "type": "Feature", "properties": { "fid": 56, "id": 128, "left": 22407.1074, "top": 29826.416, "right": 22657.1074, "bottom": 29576.416, "row_index": 8, "col_index": 7 }, "geometry": { "type": "MultiPolygon", "coordinates": [ [ [ [ 22407.1074, 29826.416000000001077 ], [ 22657.1074, 29826.416000000001077 ], [ 22657.1074, 29576.416000000001077 ], [ 22407.1074, 29576.416000000001077 ], [ 22407.1074, 29826.416000000001077 ] ] ] ] } },
{ "type": "Feature", "properties": { "fid": 57, "id": 129, "left": 22407.1074, "top": 29576.416, "right": 22657.1074, "bottom": 29326.416, "row_index": 9, "col_index": 7 }, "geometry": { "type": "MultiPolygon", "coordinates": [ [ [ [ 22407.1074, 29576.416000000001077 ], [ 22657.1074, 29576.416000000001077 ], [ 22657.1074, 29326.416000000001077 ], [ 22407.1074, 29326.416000000001077 ], [ 22407.1074, 29576.416000000001077 ] ] ] ] } },
{ "type": "Feature", "properties": { "fid": 58, "id": 130, "left": 22407.1074, "top": 29326.416, "right": 22657.1074, "bottom": 29076.416, "row_index": 10, "col_index": 7 }, "geometry": { "type": "MultiPolygon", "coordinates": [ [ [ [ 22407.1074, 29236.787685256895202 ], [ 22407.1074, 29326.416000000001077 ], [ 22657.1074, 29326.416000000001077 ], [ 22657.1074, 29076.416000000001077 ], [ 22522.156652466903324, 29076.416000000001077 ], [ 22407.1074, 29236.787685256895202 ] ] ] ] } },
{ "type": "Feature", "properties": { "fid": 59, "id": 131, "left": 22407.1074, "top": 29076.416, "right": 22657.1074, "bottom": 28826.416, "row_index": 11, "col_index": 7 }, "geometry": { "type": "MultiPolygon", "coordinates": [ [ [ [ 22529.301054965006188, 29066.457135911736259 ], [ 22522.156652466903324, 29076.416000000001077 ], [ 22657.1074, 29076.416000000001077 ], [ 22657.1074, 28994.666670060851175 ], [ 22529.301054965006188, 29066.457135911736259 ] ] ] ] } },
{ "type": "Feature", "properties": { "fid": 60, "id": 141, "left": 22657.1074, "top": 30826.416, "right": 22907.1074, "bottom": 30576.416, "row_index": 4, "col_index": 8 }, "geometry": { "type": "MultiPolygon", "coordinates": [ [ [ [ 22751.774906990711315, 30689.165775447821943 ], [ 22907.1074, 30577.08855082676746 ], [ 22907.1074, 30576.416000000001077 ], [ 22657.1074, 30576.416000000001077 ], [ 22657.1074, 30801.648174344878498 ], [ 22751.774906990711315, 30689.165775447821943 ] ] ] ] } },
{ "type": "Feature", "properties": { "fid": 61, "id": 142, "left": 22657.1074, "top": 30576.416, "right": 22907.1074, "bottom": 30326.416, "row_index": 5, "col_index": 8 }, "geometry": { "type": "MultiPolygon", "coordinates": [ [ [ [ 22657.1074, 30576.416000000001077 ], [ 22907.1074, 30576.416000000001077 ], [ 22907.1074, 30326.416000000001077 ], [ 22657.1074, 30326.416000000001077 ], [ 22657.1074, 30576.416000000001077 ] ] ] ] } },
{ "type": "Feature", "properties": { "fid": 62, "id": 143, "left": 22657.1074, "top": 30326.416, "right": 22907.1074, "bottom": 30076.416, "row_index": 6, "col_index": 8 }, "geometry": { "type": "MultiPolygon", "coordinates": [ [ [ [ 22657.1074, 30326.416000000001077 ], [ 22907.1074, 30326.416000000001077 ], [ 22907.1074, 30076.416000000001077 ], [ 22657.1074, 30076.416000000001077 ], [ 22657.1074, 30326.416000000001077 ] ] ] ] } },
{ "type": "Feature", "properties": { "fid": 63, "id": 144, "left": 22657.1074, "top": 30076.416, "right": 22907.1074, "bottom": 29826.416, "row_index": 7, "col_index": 8 }, "geometry": { "type": "MultiPolygon", "coordinates": [ [ [ [ 22657.1074, 30076.416000000001077 ], [ 22907.1074, 30076.416000000001077 ], [ 22907.1074, 29826.416000000001077 ], [ 22657.1074, 29826.416000000001077 ], [ 22657.1074, 30076.416000000001077 ] ] ] ] } },
{ "type": "Feature", "properties": { "fid": 64, "id": 145, "left": 22657.1074, "top": 29826.416, "right": 22907.1074, "bottom": 29576.416, "row_index": 8, "col_index": 8 }, "geometry": { "type": "MultiPolygon", "coordinates": [ [ [ [ 22657.1074, 29826.416000000001077 ], [ 22907.1074, 29826.416000000001077 ], [ 22907.1074, 29576.416000000001077 ], [ 22657.1074, 29576.416000000001077 ], [ 22657.1074, 29826.416000000001077 ] ] ] ] } },
{ "type": "Feature", "properties": { "fid": 65, "id": 146, "left": 22657.1074, "top": 29576.416, "right": 22907.1074, "bottom": 29326.416, "row_index": 9, "col_index": 8 }, "geometry": { "type": "MultiPolygon", "coordinates": [ [ [ [ 22657.1074, 29576.416000000001077 ], [ 22907.1074, 29576.416000000001077 ], [ 22907.1074, 29326.416000000001077 ], [ 22657.1074, 29326.416000000001077 ], [ 22657.1074, 29576.416000000001077 ] ] ] ] } },
{ "type": "Feature", "properties": { "fid": 66, "id": 147, "left": 22657.1074, "top": 29326.416, "right": 22907.1074, "bottom": 29076.416, "row_index": 10, "col_index": 8 }, "geometry": { "type": "MultiPolygon", "coordinates": [ [ [ [ 22657.1074, 29326.416000000001077 ], [ 22907.1074, 29326.416000000001077 ], [ 22907.1074, 29076.416000000001077 ], [ 22657.1074, 29076.416000000001077 ], [ 22657.1074, 29326.416000000001077 ] ] ] ] } },
{ "type": "Feature", "properties": { "fid": 67, "id": 148, "left": 22657.1074, "top": 29076.416, "right": 22907.1074, "bottom": 28826.416, "row_index": 11, "col_index": 8 }, "geometry": { "type": "MultiPolygon", "coordinates": [ [ [ [ 22670.39070233597522, 28987.205268496814824 ], [ 22657.1074, 28994.666670060851175 ], [ 22657.1074, 29076.416000000001077 ], [ 22907.1074, 29076.416000000001077 ], [ 22907.1074, 28907.086548488809058 ], [ 22670.39070233597522, 28987.205268496814824 ] ] ] ] } },
{ "type": "Feature", "properties": { "fid": 68, "id": 158, "left": 22907.1074, "top": 30826.416, "right": 23157.1074, "bottom": 30576.416, "row_index": 4, "col_index": 9 }, "geometry": { "type": "MultiPolygon", "coordinates": [ [ [ [ 22908.039516198903584, 30576.416000000001077 ], [ 22907.1074, 30576.416000000001077 ], [ 22907.1074, 30577.08855082676746 ], [ 22908.039516198903584, 30576.416000000001077 ] ] ] ] } },
{ "type": "Feature", "properties": { "fid": 69, "id": 159, "left": 22907.1074, "top": 30576.416, "right": 23157.1074, "bottom": 30326.416, "row_index": 5, "col_index": 9 }, "geometry": { "type": "MultiPolygon", "coordinates": [ [ [ [ 23157.1074, 30396.705775707156135 ], [ 23157.1074, 30326.416000000001077 ], [ 22907.1074, 30326.416000000001077 ], [ 22907.1074, 30576.416000000001077 ], [ 22908.039516198903584, 30576.416000000001077 ], [ 23157.1074, 30396.705775707156135 ] ] ] ] } },
{ "type": "Feature", "properties": { "fid": 70, "id": 160, "left": 22907.1074, "top": 30326.416, "right": 23157.1074, "bottom": 30076.416, "row_index": 6, "col_index": 9 }, "geometry": { "type": "MultiPolygon", "coordinates": [ [ [ [ 22907.1074, 30326.416000000001077 ], [ 23157.1074, 30326.416000000001077 ], [ 23157.1074, 30076.416000000001077 ], [ 22907.1074, 30076.416000000001077 ], [ 22907.1074, 30326.416000000001077 ] ] ] ] } },
{ "type": "Feature", "properties": { "fid": 71, "id": 161, "left": 22907.1074, "top": 30076.416, "right": 23157.1074, "bottom": 29826.416, "row_index": 7, "col_index": 9 }, "geometry": { "type": "MultiPolygon", "coordinates": [ [ [ [ 22907.1074, 30076.416000000001077 ], [ 23157.1074, 30076.416000000001077 ], [ 23157.1074, 29826.416000000001077 ], [ 22907.1074, 29826.416000000001077 ], [ 22907.1074, 30076.416000000001077 ] ] ] ] } },
{ "type": "Feature", "properties": { "fid": 72, "id": 162, "left": 22907.1074, "top": 29826.416, "right": 23157.1074, "bottom": 29576.416, "row_index": 8, "col_index": 9 }, "geometry": { "type": "MultiPolygon", "coordinates": [ [ [ [ 22907.1074, 29826.416000000001077 ], [ 23157.1074, 29826.416000000001077 ], [ 23157.1074, 29576.416000000001077 ], [ 22907.1074, 29576.416000000001077 ], [ 22907.1074, 29826.416000000001077 ] ] ] ] } },
{ "type": "Feature", "properties": { "fid": 73, "id": 163, "left": 22907.1074, "top": 29576.416, "right": 23157.1074, "bottom": 29326.416, "row_index": 9, "col_index": 9 }, "geometry": { "type": "MultiPolygon", "coordinates": [ [ [ [ 22907.1074, 29576.416000000001077 ], [ 23157.1074, 29576.416000000001077 ], [ 23157.1074, 29326.416000000001077 ], [ 22907.1074, 29326.416000000001077 ], [ 22907.1074, 29576.416000000001077 ] ] ] ] } },
{ "type": "Feature", "properties": { "fid": 74, "id": 164, "left": 22907.1074, "top": 29326.416, "right": 23157.1074, "bottom": 29076.416, "row_index": 10, "col_index": 9 }, "geometry": { "type": "MultiPolygon", "coordinates": [ [ [ [ 22907.1074, 29326.416000000001077 ], [ 23157.1074, 29326.416000000001077 ], [ 23157.1074, 29076.416000000001077 ], [ 22907.1074, 29076.416000000001077 ], [ 22907.1074, 29326.416000000001077 ] ] ] ] } },
{ "type": "Feature", "properties": { "fid": 75, "id": 165, "left": 22907.1074, "top": 29076.416, "right": 23157.1074, "bottom": 28826.416, "row_index": 11, "col_index": 9 }, "geometry": { "type": "MultiPolygon", "coordinates": [ [ [ [ 22907.1074, 28907.086548488809058 ], [ 22907.1074, 29076.416000000001077 ], [ 23157.1074, 29076.416000000001077 ], [ 23157.1074, 28826.416000000001077 ], [ 23145.454515818975779, 28826.416000000001077 ], [ 22907.1074, 28907.086548488809058 ] ] ] ] } },
{ "type": "Feature", "properties": { "fid": 76, "id": 166, "left": 22907.1074, "top": 28826.416, "right": 23157.1074, "bottom": 28576.416, "row_index": 12, "col_index": 9 }, "geometry": { "type": "MultiPolygon", "coordinates": [ [ [ [ 23145.454515818975779, 28826.416000000001077 ], [ 23157.1074, 28826.416000000001077 ], [ 23157.1074, 28822.471985174692236 ], [ 23145.454515818975779, 28826.416000000001077 ] ] ] ] } },
{ "type": "Feature", "properties": { "fid": 77, "id": 176, "left": 23157.1074, "top": 30576.416, "right": 23407.1074, "bottom": 30326.416, "row_index": 5, "col_index": 10 }, "geometry": { "type": "MultiPolygon", "coordinates": [ [ [ [ 23254.52492733949839, 30326.416000000001077 ], [ 23157.1074, 30326.416000000001077 ], [ 23157.1074, 30396.705775707156135 ], [ 23254.52492733949839, 30326.416000000001077 ] ] ] ] } },
{ "type": "Feature", "properties": { "fid": 78, "id": 177, "left": 23157.1074, "top": 30326.416, "right": 23407.1074, "bottom": 30076.416, "row_index": 6, "col_index": 10 }, "geometry": { "type": "MultiPolygon", "coordinates": [ [ [ [ 23407.1074, 30216.323000587544811 ], [ 23407.1074, 30076.416000000001077 ], [ 23157.1074, 30076.416000000001077 ], [ 23157.1074, 30326.416000000001077 ], [ 23254.52492733949839, 30326.416000000001077 ], [ 23407.1074, 30216.323000587544811 ] ] ] ] } },
{ "type": "Feature", "properties": { "fid": 79, "id": 178, "left": 23157.1074, "top": 30076.416, "right": 23407.1074, "bottom": 29826.416, "row_index": 7, "col_index": 10 }, "geometry": { "type": "MultiPolygon", "coordinates": [ [ [ [ 23157.1074, 30076.416000000001077 ], [ 23407.1074, 30076.416000000001077 ], [ 23407.1074, 29826.416000000001077 ], [ 23157.1074, 29826.416000000001077 ], [ 23157.1074, 30076.416000000001077 ] ] ] ] } },
{ "type": "Feature", "properties": { "fid": 80, "id": 179, "left": 23157.1074, "top": 29826.416, "right": 23407.1074, "bottom": 29576.416, "row_index": 8, "col_index": 10 }, "geometry": { "type": "MultiPolygon", "coordinates": [ [ [ [ 23157.1074, 29826.416000000001077 ], [ 23407.1074, 29826.416000000001077 ], [ 23407.1074, 29576.416000000001077 ], [ 23157.1074, 29576.416000000001077 ], [ 23157.1074, 29826.416000000001077 ] ] ] ] } },
{ "type": "Feature", "properties": { "fid": 81, "id": 180, "left": 23157.1074, "top": 29576.416, "right": 23407.1074, "bottom": 29326.416, "row_index": 9, "col_index": 10 }, "geometry": { "type": "MultiPolygon", "coordinates": [ [ [ [ 23157.1074, 29576.416000000001077 ], [ 23407.1074, 29576.416000000001077 ], [ 23407.1074, 29326.416000000001077 ], [ 23157.1074, 29326.416000000001077 ], [ 23157.1074, 29576.416000000001077 ] ] ] ] } },
{ "type": "Feature", "properties": { "fid": 82, "id": 181, "left": 23157.1074, "top": 29326.416, "right": 23407.1074, "bottom": 29076.416, "row_index": 10, "col_index": 10 }, "geometry": { "type": "MultiPolygon", "coordinates": [ [ [ [ 23157.1074, 29326.416000000001077 ], [ 23407.1074, 29326.416000000001077 ], [ 23407.1074, 29076.416000000001077 ], [ 23157.1074, 29076.416000000001077 ], [ 23157.1074, 29326.416000000001077 ] ] ] ] } },
{ "type": "Feature", "properties": { "fid": 83, "id": 182, "left": 23157.1074, "top": 29076.416, "right": 23407.1074, "bottom": 28826.416, "row_index": 11, "col_index": 10 }, "geometry": { "type": "MultiPolygon", "coordinates": [ [ [ [ 23157.1074, 29076.416000000001077 ], [ 23407.1074, 29076.416000000001077 ], [ 23407.1074, 28826.416000000001077 ], [ 23157.1074, 28826.416000000001077 ], [ 23157.1074, 29076.416000000001077 ] ] ] ] } },
{ "type": "Feature", "properties": { "fid": 84, "id": 183, "left": 23157.1074, "top": 28826.416, "right": 23407.1074, "bottom": 28576.416, "row_index": 12, "col_index": 10 }, "geometry": { "type": "MultiPolygon", "coordinates": [ [ [ [ 23157.1074, 28822.471985174692236 ], [ 23157.1074, 28826.416000000001077 ], [ 23407.1074, 28826.416000000001077 ], [ 23407.1074, 28737.857421860571776 ], [ 23157.1074, 28822.471985174692236 ] ] ] ] } },
{ "type": "Feature", "properties": { "fid": 85, "id": 194, "left": 23407.1074, "top": 30326.416, "right": 23657.1074, "bottom": 30076.416, "row_index": 6, "col_index": 11 }, "geometry": { "type": "MultiPolygon", "coordinates": [ [ [ [ 23494.539045543177053, 30153.238349162136728 ], [ 23617.454804202592641, 30076.416000000001077 ], [ 23407.1074, 30076.416000000001077 ], [ 23407.1074, 30216.323000587544811 ], [ 23494.539045543177053, 30153.238349162136728 ] ] ] ] } },
{ "type": "Feature", "properties": { "fid": 86, "id": 195, "left": 23407.1074, "top": 30076.416, "right": 23657.1074, "bottom": 29826.416, "row_index": 7, "col_index": 11 }, "geometry": { "type": "MultiPolygon", "coordinates": [ [ [ [ 23657.1074, 30051.63312762662099 ], [ 23657.1074, 29826.416000000001077 ], [ 23407.1074, 29826.416000000001077 ], [ 23407.1074, 30076.416000000001077 ], [ 23617.454804202592641, 30076.416000000001077 ], [ 23657.1074, 30051.63312762662099 ] ] ] ] } },
{ "type": "Feature", "properties": { "fid": 87, "id": 196, "left": 23407.1074, "top": 29826.416, "right": 23657.1074, "bottom": 29576.416, "row_index": 8, "col_index": 11 }, "geometry": { "type": "MultiPolygon", "coordinates": [ [ [ [ 23407.1074, 29826.416000000001077 ], [ 23657.1074, 29826.416000000001077 ], [ 23657.1074, 29576.416000000001077 ], [ 23407.1074, 29576.416000000001077 ], [ 23407.1074, 29826.416000000001077 ] ] ] ] } },
{ "type": "Feature", "properties": { "fid": 88, "id": 197, "left": 23407.1074, "top": 29576.416, "right": 23657.1074, "bottom": 29326.416, "row_index": 9, "col_index": 11 }, "geometry": { "type": "MultiPolygon", "coordinates": [ [ [ [ 23407.1074, 29576.416000000001077 ], [ 23657.1074, 29576.416000000001077 ], [ 23657.1074, 29326.416000000001077 ], [ 23407.1074, 29326.416000000001077 ], [ 23407.1074, 29576.416000000001077 ] ] ] ] } },
{ "type": "Feature", "properties": { "fid": 89, "id": 198, "left": 23407.1074, "top": 29326.416, "right": 23657.1074, "bottom": 29076.416, "row_index": 10, "col_index": 11 }, "geometry": { "type": "MultiPolygon", "coordinates": [ [ [ [ 23407.1074, 29326.416000000001077 ], [ 23657.1074, 29326.416000000001077 ], [ 23657.1074, 29076.416000000001077 ], [ 23407.1074, 29076.416000000001077 ], [ 23407.1074, 29326.416000000001077 ] ] ] ] } },
{ "type": "Feature", "properties": { "fid": 90, "id": 199, "left": 23407.1074, "top": 29076.416, "right": 23657.1074, "bottom": 28826.416, "row_index": 11, "col_index": 11 }, "geometry": { "type": "MultiPolygon", "coordinates": [ [ [ [ 23407.1074, 29076.416000000001077 ], [ 23657.1074, 29076.416000000001077 ], [ 23657.1074, 28826.416000000001077 ], [ 23407.1074, 28826.416000000001077 ], [ 23407.1074, 29076.416000000001077 ] ] ] ] } },
{ "type": "Feature", "properties": { "fid": 91, "id": 200, "left": 23407.1074, "top": 28826.416, "right": 23657.1074, "bottom": 28576.416, "row_index": 12, "col_index": 11 }, "geometry": { "type": "MultiPolygon", "coordinates": [ [ [ [ 23407.1074, 28737.857421860571776 ], [ 23407.1074, 28826.416000000001077 ], [ 23657.1074, 28826.416000000001077 ], [ 23657.1074, 28653.242858546454954 ], [ 23407.1074, 28737.857421860571776 ] ] ] ] } },
{ "type": "Feature", "properties": { "fid": 92, "id": 212, "left": 23657.1074, "top": 30076.416, "right": 23907.1074, "bottom": 29826.416, "row_index": 7, "col_index": 12 }, "geometry": { "type": "MultiPolygon", "coordinates": [ [ [ [ 23907.1074, 29895.38312762662099 ], [ 23907.1074, 29826.416000000001077 ], [ 23657.1074, 29826.416000000001077 ], [ 23657.1074, 30051.63312762662099 ], [ 23907.1074, 29895.38312762662099 ] ] ] ] } },
{ "type": "Feature", "properties": { "fid": 93, "id": 213, "left": 23657.1074, "top": 29826.416, "right": 23907.1074, "bottom": 29576.416, "row_index": 8, "col_index": 12 }, "geometry": { "type": "MultiPolygon", "coordinates": [ [ [ [ 23657.1074, 29826.416000000001077 ], [ 23907.1074, 29826.416000000001077 ], [ 23907.1074, 29576.416000000001077 ], [ 23657.1074, 29576.416000000001077 ], [ 23657.1074, 29826.416000000001077 ] ] ] ] } },
{ "type": "Feature", "properties": { "fid": 94, "id": 214, "left": 23657.1074, "top": 29576.416, "right": 23907.1074, "bottom": 29326.416, "row_index": 9, "col_index": 12 }, "geometry": { "type": "MultiPolygon", "coordinates": [ [ [ [ 23657.1074, 29576.416000000001077 ], [ 23907.1074, 29576.416000000001077 ], [ 23907.1074, 29326.416000000001077 ], [ 23657.1074, 29326.416000000001077 ], [ 23657.1074, 29576.416000000001077 ] ] ] ] } },
{ "type": "Feature", "properties": { "fid": 95, "id": 215, "left": 23657.1074, "top": 29326.416, "right": 23907.1074, "bottom": 29076.416, "row_index": 10, "col_index": 12 }, "geometry": { "type": "MultiPolygon", "coordinates": [ [ [ [ 23657.1074, 29326.416000000001077 ], [ 23907.1074, 29326.416000000001077 ], [ 23907.1074, 29076.416000000001077 ], [ 23657.1074, 29076.416000000001077 ], [ 23657.1074, 29326.416000000001077 ] ] ] ] } },
{ "type": "Feature", "properties": { "fid": 96, "id": 216, "left": 23657.1074, "top": 29076.416, "right": 23907.1074, "bottom": 28826.416, "row_index": 11, "col_index": 12 }, "geometry": { "type": "MultiPolygon", "coordinates": [ [ [ [ 23657.1074, 29076.416000000001077 ], [ 23907.1074, 29076.416000000001077 ], [ 23907.1074, 28826.416000000001077 ], [ 23657.1074, 28826.416000000001077 ], [ 23657.1074, 29076.416000000001077 ] ] ] ] } },
{ "type": "Feature", "properties": { "fid": 97, "id": 217, "left": 23657.1074, "top": 28826.416, "right": 23907.1074, "bottom": 28576.416, "row_index": 12, "col_index": 12 }, "geometry": { "type": "MultiPolygon", "coordinates": [ [ [ [ 23657.1074, 28653.242858546454954 ], [ 23657.1074, 28826.416000000001077 ], [ 23907.1074, 28826.416000000001077 ], [ 23907.1074, 28576.416000000001077 ], [ 23884.09804894197805, 28576.416000000001077 ], [ 23657.1074, 28653.242858546454954 ] ] ] ] } },
{ "type": "Feature", "properties": { "fid": 98, "id": 218, "left": 23657.1074, "top": 28576.416, "right": 23907.1074, "bottom": 28326.416, "row_index": 13, "col_index": 12 }, "geometry": { "type": "MultiPolygon", "coordinates": [ [ [ [ 23884.09804894197805, 28576.416000000001077 ], [ 23907.1074, 28576.416000000001077 ], [ 23907.1074, 28568.628295232338132 ], [ 23884.09804894197805, 28576.416000000001077 ] ] ] ] } },
{ "type": "Feature", "properties": { "fid": 99, "id": 229, "left": 23907.1074, "top": 30076.416, "right": 24157.1074, "bottom": 29826.416, "row_index": 7, "col_index": 13 }, "geometry": { "type": "MultiPolygon", "coordinates": [ [ [ [ 24017.454804202592641, 29826.416000000001077 ], [ 23907.1074, 29826.416000000001077 ], [ 23907.1074, 29895.38312762662099 ], [ 24017.454804202592641, 29826.416000000001077 ] ] ] ] } },
{ "type": "Feature", "properties": { "fid": 100, "id": 230, "left": 23907.1074, "top": 29826.416, "right": 24157.1074, "bottom": 29576.416, "row_index": 8, "col_index": 13 }, "geometry": { "type": "MultiPolygon", "coordinates": [ [ [ [ 24157.1074, 29739.13312762662099 ], [ 24157.1074, 29576.416000000001077 ], [ 23907.1074, 29576.416000000001077 ], [ 23907.1074, 29826.416000000001077 ], [ 24017.454804202592641, 29826.416000000001077 ], [ 24157.1074, 29739.13312762662099 ] ] ] ] } },
{ "type": "Feature", "properties": { "fid": 101, "id": 231, "left": 23907.1074, "top": 29576.416, "right": 24157.1074, "bottom": 29326.416, "row_index": 9, "col_index": 13 }, "geometry": { "type": "MultiPolygon", "coordinates": [ [ [ [ 23907.1074, 29576.416000000001077 ], [ 24157.1074, 29576.416000000001077 ], [ 24157.1074, 29326.416000000001077 ], [ 23907.1074, 29326.416000000001077 ], [ 23907.1074, 29576.416000000001077 ] ] ] ] } },
{ "type": "Feature", "properties": { "fid": 102, "id": 232, "left": 23907.1074, "top": 29326.416, "right": 24157.1074, "bottom": 29076.416, "row_index": 10, "col_index": 13 }, "geometry": { "type": "MultiPolygon", "coordinates": [ [ [ [ 23907.1074, 29326.416000000001077 ], [ 24157.1074, 29326.416000000001077 ], [ 24157.1074, 29076.416000000001077 ], [ 23907.1074, 29076.416000000001077 ], [ 23907.1074, 29326.416000000001077 ] ] ] ] } },
{ "type": "Feature", "properties": { "fid": 103, "id": 233, "left": 23907.1074, "top": 29076.416, "right": 24157.1074, "bottom": 28826.416, "row_index": 11, "col_index": 13 }, "geometry": { "type": "MultiPolygon", "coordinates": [ [ [ [ 23907.1074, 29076.416000000001077 ], [ 24157.1074, 29076.416000000001077 ], [ 24157.1074, 28826.416000000001077 ], [ 23907.1074, 28826.416000000001077 ], [ 23907.1074, 29076.416000000001077 ] ] ] ] } },
{ "type": "Feature", "properties": { "fid": 104, "id": 234, "left": 23907.1074, "top": 28826.416, "right": 24157.1074, "bottom": 28576.416, "row_index": 12, "col_index": 13 }, "geometry": { "type": "MultiPolygon", "coordinates": [ [ [ [ 23907.1074, 28826.416000000001077 ], [ 24157.1074, 28826.416000000001077 ], [ 24157.1074, 28576.416000000001077 ], [ 23907.1074, 28576.416000000001077 ], [ 23907.1074, 28826.416000000001077 ] ] ] ] } },
{ "type": "Feature", "properties": { "fid": 105, "id": 235, "left": 23907.1074, "top": 28576.416, "right": 24157.1074, "bottom": 28326.416, "row_index": 13, "col_index": 13 }, "geometry": { "type": "MultiPolygon", "coordinates": [ [ [ [ 23907.1074, 28568.628295232338132 ], [ 23907.1074, 28576.416000000001077 ], [ 24157.1074, 28576.416000000001077 ], [ 24157.1074, 28484.01373191822131 ], [ 23907.1074, 28568.628295232338132 ] ] ] ] } },
{ "type": "Feature", "properties": { "fid": 106, "id": 247, "left": 24157.1074, "top": 29826.416, "right": 24407.1074, "bottom": 29576.416, "row_index": 8, "col_index": 14 }, "geometry": { "type": "MultiPolygon", "coordinates": [ [ [ [ 24176.886962299500738, 29726.770901189433062 ], [ 24407.1074, 29637.873900493199471 ], [ 24407.1074, 29576.416000000001077 ], [ 24157.1074, 29576.416000000001077 ], [ 24157.1074, 29739.13312762662099 ], [ 24176.886962299500738, 29726.770901189433062 ] ] ] ] } },
{ "type": "Feature", "properties": { "fid": 107, "id": 248, "left": 24157.1074, "top": 29576.416, "right": 24407.1074, "bottom": 29326.416, "row_index": 9, "col_index": 14 }, "geometry": { "type": "MultiPolygon", "coordinates": [ [ [ [ 24157.1074, 29576.416000000001077 ], [ 24407.1074, 29576.416000000001077 ], [ 24407.1074, 29326.416000000001077 ], [ 24157.1074, 29326.416000000001077 ], [ 24157.1074, 29576.416000000001077 ] ] ] ] } },
{ "type": "Feature", "properties": { "fid": 108, "id": 249, "left": 24157.1074, "top": 29326.416, "right": 24407.1074, "bottom": 29076.416, "row_index": 10, "col_index": 14 }, "geometry": { "type": "MultiPolygon", "coordinates": [ [ [ [ 24157.1074, 29326.416000000001077 ], [ 24407.1074, 29326.416000000001077 ], [ 24407.1074, 29076.416000000001077 ], [ 24157.1074, 29076.416000000001077 ], [ 24157.1074, 29326.416000000001077 ] ] ] ] } },
{ "type": "Feature", "properties": { "fid": 109, "id": 250, "left": 24157.1074, "top": 29076.416, "right": 24407.1074, "bottom": 28826.416, "row_index": 11, "col_index": 14 }, "geometry": { "type": "MultiPolygon", "coordinates": [ [ [ [ 24157.1074, 29076.416000000001077 ], [ 24407.1074, 29076.416000000001077 ], [ 24407.1074, 28826.416000000001077 ], [ 24157.1074, 28826.416000000001077 ], [ 24157.1074, 29076.416000000001077 ] ] ] ] } },
{ "type": "Feature", "properties": { "fid": 110, "id": 251, "left": 24157.1074, "top": 28826.416, "right": 24407.1074, "bottom": 28576.416, "row_index": 12, "col_index": 14 }, "geometry": { "type": "MultiPolygon", "coordinates": [ [ [ [ 24157.1074, 28826.416000000001077 ], [ 24407.1074, 28826.416000000001077 ], [ 24407.1074, 28576.416000000001077 ], [ 24157.1074, 28576.416000000001077 ], [ 24157.1074, 28826.416000000001077 ] ] ] ] } },
{ "type": "Feature", "properties": { "fid": 111, "id": 252, "left": 24157.1074, "top": 28576.416, "right": 24407.1074, "bottom": 28326.416, "row_index": 13, "col_index": 14 }, "geometry": { "type": "MultiPolygon", "coordinates": [ [ [ [ 24334.679918049449043, 28423.912847632851481 ], [ 24157.1074, 28484.01373191822131 ], [ 24157.1074, 28576.416000000001077 ], [ 24407.1074, 28576.416000000001077 ], [ 24407.1074, 28392.91275808203136 ], [ 24334.679918049449043, 28423.912847632851481 ] ] ] ] } },
{ "type": "Feature", "properties": { "fid": 112, "id": 264, "left": 24407.1074, "top": 29826.416, "right": 24657.1074, "bottom": 29576.416, "row_index": 8, "col_index": 15 }, "geometry": { "type": "MultiPolygon", "coordinates": [ [ [ [ 24464.041710601115483, 29615.889364716531418 ], [ 24657.1074, 29603.308643101569032 ], [ 24657.1074, 29576.416000000001077 ], [ 24407.1074, 29576.416000000001077 ], [ 24407.1074, 29637.873900493199471 ], [ 24464.041710601115483, 29615.889364716531418 ] ] ] ] } },
{ "type": "Feature", "properties": { "fid": 113, "id": 265, "left": 24407.1074, "top": 29576.416, "right": 24657.1074, "bottom": 29326.416, "row_index": 9, "col_index": 15 }, "geometry": { "type": "MultiPolygon", "coordinates": [ [ [ [ 24407.1074, 29576.416000000001077 ], [ 24657.1074, 29576.416000000001077 ], [ 24657.1074, 29326.416000000001077 ], [ 24407.1074, 29326.416000000001077 ], [ 24407.1074, 29576.416000000001077 ] ] ] ] } },
{ "type": "Feature", "properties": { "fid": 114, "id": 266, "left": 24407.1074, "top": 29326.416, "right": 24657.1074, "bottom": 29076.416, "row_index": 10, "col_index": 15 }, "geometry": { "type": "MultiPolygon", "coordinates": [ [ [ [ 24407.1074, 29326.416000000001077 ], [ 24657.1074, 29326.416000000001077 ], [ 24657.1074, 29076.416000000001077 ], [ 24407.1074, 29076.416000000001077 ], [ 24407.1074, 29326.416000000001077 ] ] ] ] } },
{ "type": "Feature", "properties": { "fid": 115, "id": 267, "left": 24407.1074, "top": 29076.416, "right": 24657.1074, "bottom": 28826.416, "row_index": 11, "col_index": 15 }, "geometry": { "type": "MultiPolygon", "coordinates": [ [ [ [ 24407.1074, 29076.416000000001077 ], [ 24657.1074, 29076.416000000001077 ], [ 24657.1074, 28826.416000000001077 ], [ 24407.1074, 28826.416000000001077 ], [ 24407.1074, 29076.416000000001077 ] ] ] ] } },
{ "type": "Feature", "properties": { "fid": 116, "id": 268, "left": 24407.1074, "top": 28826.416, "right": 24657.1074, "bottom": 28576.416, "row_index": 12, "col_index": 15 }, "geometry": { "type": "MultiPolygon", "coordinates": [ [ [ [ 24407.1074, 28826.416000000001077 ], [ 24657.1074, 28826.416000000001077 ], [ 24657.1074, 28576.416000000001077 ], [ 24407.1074, 28576.416000000001077 ], [ 24407.1074, 28826.416000000001077 ] ] ] ] } },
{ "type": "Feature", "properties": { "fid": 117, "id": 269, "left": 24407.1074, "top": 28576.416, "right": 24657.1074, "bottom": 28326.416, "row_index": 13, "col_index": 15 }, "geometry": { "type": "MultiPolygon", "coordinates": [ [ [ [ 24517.35014159775892, 28345.727148837857385 ], [ 24407.1074, 28392.91275808203136 ], [ 24407.1074, 28576.416000000001077 ], [ 24657.1074, 28576.416000000001077 ], [ 24657.1074, 28338.172702437736007 ], [ 24517.35014159775892, 28345.727148837857385 ] ] ] ] } },
{ "type": "Feature", "properties": { "fid": 118, "id": 281, "left": 24657.1074, "top": 29826.416, "right": 24907.1074, "bottom": 29576.416, "row_index": 8, "col_index": 16 }, "geometry": { "type": "MultiPolygon", "coordinates": [ [ [ [ 24907.1074, 29587.017916284527018 ], [ 24907.1074, 29576.416000000001077 ], [ 24657.1074, 29576.416000000001077 ], [ 24657.1074, 29603.308643101569032 ], [ 24907.1074, 29587.017916284527018 ] ] ] ] } },
{ "type": "Feature", "properties": { "fid": 119, "id": 282, "left": 24657.1074, "top": 29576.416, "right": 24907.1074, "bottom": 29326.416, "row_index": 9, "col_index": 16 }, "geometry": { "type": "MultiPolygon", "coordinates": [ [ [ [ 24657.1074, 29576.416000000001077 ], [ 24907.1074, 29576.416000000001077 ], [ 24907.1074, 29326.416000000001077 ], [ 24657.1074, 29326.416000000001077 ], [ 24657.1074, 29576.416000000001077 ] ] ] ] } },
{ "type": "Feature", "properties": { "fid": 120, "id": 283, "left": 24657.1074, "top": 29326.416, "right": 24907.1074, "bottom": 29076.416, "row_index": 10, "col_index": 16 }, "geometry": { "type": "MultiPolygon", "coordinates": [ [ [ [ 24657.1074, 29326.416000000001077 ], [ 24907.1074, 29326.416000000001077 ], [ 24907.1074, 29076.416000000001077 ], [ 24657.1074, 29076.416000000001077 ], [ 24657.1074, 29326.416000000001077 ] ] ] ] } },
{ "type": "Feature", "properties": { "fid": 121, "id": 284, "left": 24657.1074, "top": 29076.416, "right": 24907.1074, "bottom": 28826.416, "row_index": 11, "col_index": 16 }, "geometry": { "type": "MultiPolygon", "coordinates": [ [ [ [ 24657.1074, 29076.416000000001077 ], [ 24907.1074, 29076.416000000001077 ], [ 24907.1074, 28826.416000000001077 ], [ 24657.1074, 28826.416000000001077 ], [ 24657.1074, 29076.416000000001077 ] ] ] ] } },
{ "type": "Feature", "properties": { "fid": 122, "id": 285, "left": 24657.1074, "top": 28826.416, "right": 24907.1074, "bottom": 28576.416, "row_index": 12, "col_index": 16 }, "geometry": { "type": "MultiPolygon", "coordinates": [ [ [ [ 24657.1074, 28826.416000000001077 ], [ 24907.1074, 28826.416000000001077 ], [ 24907.1074, 28576.416000000001077 ], [ 24657.1074, 28576.416000000001077 ], [ 24657.1074, 28826.416000000001077 ] ] ] ] } },
{ "type": "Feature", "properties": { "fid": 123, "id": 286, "left": 24657.1074, "top": 28576.416, "right": 24907.1074, "bottom": 28326.416, "row_index": 13, "col_index": 16 }, "geometry": { "type": "MultiPolygon", "coordinates": [ [ [ [ 24754.039575222610438, 28332.933125398674747 ], [ 24657.1074, 28338.172702437736007 ], [ 24657.1074, 28576.416000000001077 ], [ 24907.1074, 28576.416000000001077 ], [ 24907.1074, 28326.416000000001077 ], [ 24770.856937836750149, 28326.416000000001077 ], [ 24754.039575222610438, 28332.933125398674747 ] ] ] ] } },
{ "type": "Feature", "properties": { "fid": 124, "id": 287, "left": 24657.1074, "top": 28326.416, "right": 24907.1074, "bottom": 28076.416, "row_index": 14, "col_index": 16 }, "geometry": { "type": "MultiPolygon", "coordinates": [ [ [ [ 24770.856937836750149, 28326.416000000001077 ], [ 24907.1074, 28326.416000000001077 ], [ 24907.1074, 28273.615726382860885 ], [ 24770.856937836750149, 28326.416000000001077 ] ] ] ] } },
{ "type": "Feature", "properties": { "fid": 125, "id": 298, "left": 24907.1074, "top": 29826.416, "right": 25157.1074, "bottom": 29576.416, "row_index": 8, "col_index": 17 }, "geometry": { "type": "MultiPolygon", "coordinates": [ [ [ [ 25069.806038366376015, 29576.416000000001077 ], [ 24907.1074, 29576.416000000001077 ], [ 24907.1074, 29587.017916284527018 ], [ 25069.806038366376015, 29576.416000000001077 ] ] ] ] } },
{ "type": "Feature", "properties": { "fid": 126, "id": 299, "left": 24907.1074, "top": 29576.416, "right": 25157.1074, "bottom": 29326.416, "row_index": 9, "col_index": 17 }, "geometry": { "type": "MultiPolygon", "coordinates": [ [ [ [ 25157.1074, 29570.727189467485005 ], [ 25157.1074, 29326.416000000001077 ], [ 24907.1074, 29326.416000000001077 ], [ 24907.1074, 29576.416000000001077 ], [ 25069.806038366376015, 29576.416000000001077 ], [ 25157.1074, 29570.727189467485005 ] ] ] ] } },
{ "type": "Feature", "properties": { "fid": 127, "id": 300, "left": 24907.1074, "top": 29326.416, "right": 25157.1074, "bottom": 29076.416, "row_index": 10, "col_index": 17 }, "geometry": { "type": "MultiPolygon", "coordinates": [ [ [ [ 24907.1074, 29326.416000000001077 ], [ 25157.1074, 29326.416000000001077 ], [ 25157.1074, 29076.416000000001077 ], [ 24907.1074, 29076.416000000001077 ], [ 24907.1074, 29326.416000000001077 ] ] ] ] } },
{ "type": "Feature", "properties": { "fid": 128, "id": 301, "left": 24907.1074, "top": 29076.416, "right": 25157.1074, "bottom": 28826.416, "row_index": 11, "col_index": 17 }, "geometry": { "type": "MultiPolygon", "coordinates": [ [ [ [ 24907.1074, 29076.416000000001077 ], [ 25157.1074, 29076.416000000001077 ], [ 25157.1074, 28826.416000000001077 ], [ 24907.1074, 28826.416000000001077 ], [ 24907.1074, 29076.416000000001077 ] ] ] ] } },
{ "type": "Feature", "properties": { "fid": 129, "id": 302, "left": 24907.1074, "top": 28826.416, "right": 25157.1074, "bottom": 28576.416, "row_index": 12, "col_index": 17 }, "geometry": { "type": "MultiPolygon", "coordinates": [ [ [ [ 24907.1074, 28826.416000000001077 ], [ 25157.1074, 28826.416000000001077 ], [ 25157.1074, 28576.416000000001077 ], [ 24907.1074, 28576.416000000001077 ], [ 24907.1074, 28826.416000000001077 ] ] ] ] } },
{ "type": "Feature", "properties": { "fid": 130, "id": 303, "left": 24907.1074, "top": 28576.416, "right": 25157.1074, "bottom": 28326.416, "row_index": 13, "col_index": 17 }, "geometry": { "type": "MultiPolygon", "coordinates": [ [ [ [ 24907.1074, 28576.416000000001077 ], [ 25157.1074, 28576.416000000001077 ], [ 25157.1074, 28326.416000000001077 ], [ 24907.1074, 28326.416000000001077 ], [ 24907.1074, 28576.416000000001077 ] ] ] ] } },
{ "type": "Feature", "properties": { "fid": 131, "id": 304, "left": 24907.1074, "top": 28326.416, "right": 25157.1074, "bottom": 28076.416, "row_index": 14, "col_index": 17 }, "geometry": { "type": "MultiPolygon", "coordinates": [ [ [ [ 25130.041708518529049, 28187.223414008003601 ], [ 24907.1074, 28273.615726382860885 ], [ 24907.1074, 28326.416000000001077 ], [ 25157.1074, 28326.416000000001077 ], [ 25157.1074, 28184.553668929900596 ], [ 25130.041708518529049, 28187.223414008003601 ] ] ] ] } },
{ "type": "Feature", "properties": { "fid": 132, "id": 316, "left": 25157.1074, "top": 29576.416, "right": 25407.1074, "bottom": 29326.416, "row_index": 9, "col_index": 18 }, "geometry": { "type": "MultiPolygon", "coordinates": [ [ [ [ 25407.1074, 29554.436462650442991 ], [ 25407.1074, 29326.416000000001077 ], [ 25157.1074, 29326.416000000001077 ], [ 25157.1074, 29570.727189467485005 ], [ 25407.1074, 29554.436462650442991 ] ] ] ] } },
{ "type": "Feature", "properties": { "fid": 133, "id": 317, "left": 25157.1074, "top": 29326.416, "right": 25407.1074, "bottom": 29076.416, "row_index": 10, "col_index": 18 }, "geometry": { "type": "MultiPolygon", "coordinates": [ [ [ [ 25157.1074, 29326.416000000001077 ], [ 25407.1074, 29326.416000000001077 ], [ 25407.1074, 29076.416000000001077 ], [ 25157.1074, 29076.416000000001077 ], [ 25157.1074, 29326.416000000001077 ] ] ] ] } },
{ "type": "Feature", "properties": { "fid": 134, "id": 318, "left": 25157.1074, "top": 29076.416, "right": 25407.1074, "bottom": 28826.416, "row_index": 11, "col_index": 18 }, "geometry": { "type": "MultiPolygon", "coordinates": [ [ [ [ 25157.1074, 29076.416000000001077 ], [ 25407.1074, 29076.416000000001077 ], [ 25407.1074, 28826.416000000001077 ], [ 25157.1074, 28826.416000000001077 ], [ 25157.1074, 29076.416000000001077 ] ] ] ] } },
{ "type": "Feature", "properties": { "fid": 135, "id": 319, "left": 25157.1074, "top": 28826.416, "right": 25407.1074, "bottom": 28576.416, "row_index": 12, "col_index": 18 }, "geometry": { "type": "MultiPolygon", "coordinates": [ [ [ [ 25157.1074, 28826.416000000001077 ], [ 25407.1074, 28826.416000000001077 ], [ 25407.1074, 28576.416000000001077 ], [ 25157.1074, 28576.416000000001077 ], [ 25157.1074, 28826.416000000001077 ] ] ] ] } },
{ "type": "Feature", "properties": { "fid": 136, "id": 320, "left": 25157.1074, "top": 28576.416, "right": 25407.1074, "bottom": 28326.416, "row_index": 13, "col_index": 18 }, "geometry": { "type": "MultiPolygon", "coordinates": [ [ [ [ 25157.1074, 28576.416000000001077 ], [ 25407.1074, 28576.416000000001077 ], [ 25407.1074, 28326.416000000001077 ], [ 25157.1074, 28326.416000000001077 ], [ 25157.1074, 28576.416000000001077 ] ] ] ] } },
{ "type": "Feature", "properties": { "fid": 137, "id": 321, "left": 25157.1074, "top": 28326.416, "right": 25407.1074, "bottom": 28076.416, "row_index": 14, "col_index": 18 }, "geometry": { "type": "MultiPolygon", "coordinates": [ [ [ [ 25157.1074, 28184.553668929900596 ], [ 25157.1074, 28326.416000000001077 ], [ 25407.1074, 28326.416000000001077 ], [ 25407.1074, 28159.893804984323651 ], [ 25157.1074, 28184.553668929900596 ] ] ] ] } },
{ "type": "Feature", "properties": { "fid": 138, "id": 333, "left": 25407.1074, "top": 29576.416, "right": 25657.1074, "bottom": 29326.416, "row_index": 9, "col_index": 19 }, "geometry": { "type": "MultiPolygon", "coordinates": [ [ [ [ 25598.445122208500834, 29541.968340401268506 ], [ 25657.1074, 29520.382653768032469 ], [ 25657.1074, 29326.416000000001077 ], [ 25407.1074, 29326.416000000001077 ], [ 25407.1074, 29554.436462650442991 ], [ 25598.445122208500834, 29541.968340401268506 ] ] ] ] } },
{ "type": "Feature", "properties": { "fid": 139, "id": 334, "left": 25407.1074, "top": 29326.416, "right": 25657.1074, "bottom": 29076.416, "row_index": 10, "col_index": 19 }, "geometry": { "type": "MultiPolygon", "coordinates": [ [ [ [ 25407.1074, 29326.416000000001077 ], [ 25657.1074, 29326.416000000001077 ], [ 25657.1074, 29076.416000000001077 ], [ 25407.1074, 29076.416000000001077 ], [ 25407.1074, 29326.416000000001077 ] ] ] ] } },
{ "type": "Feature", "properties": { "fid": 140, "id": 335, "left": 25407.1074, "top": 29076.416, "right": 25657.1074, "bottom": 28826.416, "row_index": 11, "col_index": 19 }, "geometry": { "type": "MultiPolygon", "coordinates": [ [ [ [ 25407.1074, 29076.416000000001077 ], [ 25657.1074, 29076.416000000001077 ], [ 25657.1074, 28826.416000000001077 ], [ 25407.1074, 28826.416000000001077 ], [ 25407.1074, 29076.416000000001077 ] ] ] ] } },
{ "type": "Feature", "properties": { "fid": 141, "id": 336, "left": 25407.1074, "top": 28826.416, "right": 25657.1074, "bottom": 28576.416, "row_index": 12, "col_index": 19 }, "geometry": { "type": "MultiPolygon", "coordinates": [ [ [ [ 25407.1074, 28826.416000000001077 ], [ 25657.1074, 28826.416000000001077 ], [ 25657.1074, 28576.416000000001077 ], [ 25407.1074, 28576.416000000001077 ], [ 25407.1074, 28826.416000000001077 ] ] ] ] } },
{ "type": "Feature", "properties": { "fid": 142, "id": 337, "left": 25407.1074, "top": 28576.416, "right": 25657.1074, "bottom": 28326.416, "row_index": 13, "col_index": 19 }, "geometry": { "type": "MultiPolygon", "coordinates": [ [ [ [ 25407.1074, 28576.416000000001077 ], [ 25657.1074, 28576.416000000001077 ], [ 25657.1074, 28326.416000000001077 ], [ 25407.1074, 28326.416000000001077 ], [ 25407.1074, 28576.416000000001077 ] ] ] ] } },
{ "type": "Feature", "properties": { "fid": 143, "id": 338, "left": 25407.1074, "top": 28326.416, "right": 25657.1074, "bottom": 28076.416, "row_index": 14, "col_index": 19 }, "geometry": { "type": "MultiPolygon", "coordinates": [ [ [ [ 25547.979807531777624, 28145.998227370644599 ], [ 25407.1074, 28159.893804984323651 ], [ 25407.1074, 28326.416000000001077 ], [ 25657.1074, 28326.416000000001077 ], [ 25657.1074, 28080.36351595859378 ], [ 25547.979807531777624, 28145.998227370644599 ] ] ] ] } },
{ "type": "Feature", "properties": { "fid": 144, "id": 350, "left": 25657.1074, "top": 29576.416, "right": 25907.1074, "bottom": 29326.416, "row_index": 9, "col_index": 20 }, "geometry": { "type": "MultiPolygon", "coordinates": [ [ [ [ 25907.1074, 29428.391311776696966 ], [ 25907.1074, 29326.416000000001077 ], [ 25657.1074, 29326.416000000001077 ], [ 25657.1074, 29520.382653768032469 ], [ 25907.1074, 29428.391311776696966 ] ] ] ] } },
{ "type": "Feature", "properties": { "fid": 145, "id": 351, "left": 25657.1074, "top": 29326.416, "right": 25907.1074, "bottom": 29076.416, "row_index": 10, "col_index": 20 }, "geometry": { "type": "MultiPolygon", "coordinates": [ [ [ [ 25657.1074, 29326.416000000001077 ], [ 25907.1074, 29326.416000000001077 ], [ 25907.1074, 29076.416000000001077 ], [ 25657.1074, 29076.416000000001077 ], [ 25657.1074, 29326.416000000001077 ] ] ] ] } },
{ "type": "Feature", "properties": { "fid": 146, "id": 352, "left": 25657.1074, "top": 29076.416, "right": 25907.1074, "bottom": 28826.416, "row_index": 11, "col_index": 20 }, "geometry": { "type": "MultiPolygon", "coordinates": [ [ [ [ 25657.1074, 29076.416000000001077 ], [ 25907.1074, 29076.416000000001077 ], [ 25907.1074, 28826.416000000001077 ], [ 25657.1074, 28826.416000000001077 ], [ 25657.1074, 29076.416000000001077 ] ] ] ] } },
{ "type": "Feature", "properties": { "fid": 147, "id": 353, "left": 25657.1074, "top": 28826.416, "right": 25907.1074, "bottom": 28576.416, "row_index": 12, "col_index": 20 }, "geometry": { "type": "MultiPolygon", "coordinates": [ [ [ [ 25657.1074, 28826.416000000001077 ], [ 25907.1074, 28826.416000000001077 ], [ 25907.1074, 28576.416000000001077 ], [ 25657.1074, 28576.416000000001077 ], [ 25657.1074, 28826.416000000001077 ] ] ] ] } },
{ "type": "Feature", "properties": { "fid": 148, "id": 354, "left": 25657.1074, "top": 28576.416, "right": 25907.1074, "bottom": 28326.416, "row_index": 13, "col_index": 20 }, "geometry": { "type": "MultiPolygon", "coordinates": [ [ [ [ 25657.1074, 28576.416000000001077 ], [ 25907.1074, 28576.416000000001077 ], [ 25907.1074, 28326.416000000001077 ], [ 25657.1074, 28326.416000000001077 ], [ 25657.1074, 28576.416000000001077 ] ] ] ] } },
{ "type": "Feature", "properties": { "fid": 149, "id": 355, "left": 25657.1074, "top": 28326.416, "right": 25907.1074, "bottom": 28076.416, "row_index": 14, "col_index": 20 }, "geometry": { "type": "MultiPolygon", "coordinates": [ [ [ [ 25657.1074, 28080.36351595859378 ], [ 25657.1074, 28326.416000000001077 ], [ 25907.1074, 28326.416000000001077 ], [ 25907.1074, 28076.416000000001077 ], [ 25663.670739786575723, 28076.416000000001077 ], [ 25657.1074, 28080.36351595859378 ] ] ] ] } },
{ "type": "Feature", "properties": { "fid": 150, "id": 356, "left": 25657.1074, "top": 28076.416, "right": 25907.1074, "bottom": 27826.416, "row_index": 15, "col_index": 20 }, "geometry": { "type": "MultiPolygon", "coordinates": [ [ [ [ 25663.670739786575723, 28076.416000000001077 ], [ 25907.1074, 28076.416000000001077 ], [ 25907.1074, 27930.00119711800653 ], [ 25663.670739786575723, 28076.416000000001077 ] ] ] ] } },
{ "type": "Feature", "properties": { "fid": 151, "id": 367, "left": 25907.1074, "top": 29576.416, "right": 26157.1074, "bottom": 29326.416, "row_index": 9, "col_index": 21 }, "geometry": { "type": "MultiPolygon", "coordinates": [ [ [ [ 25926.825057147500047, 29421.135896809002588 ], [ 26074.810966514978645, 29326.416000000001077 ], [ 25907.1074, 29326.416000000001077 ], [ 25907.1074, 29428.391311776696966 ], [ 25926.825057147500047, 29421.135896809002588 ] ] ] ] } },
{ "type": "Feature", "properties": { "fid": 152, "id": 368, "left": 25907.1074, "top": 29326.416, "right": 26157.1074, "bottom": 29076.416, "row_index": 10, "col_index": 21 }, "geometry": { "type": "MultiPolygon", "coordinates": [ [ [ [ 26157.1074, 29273.74132495311278 ], [ 26157.1074, 29076.416000000001077 ], [ 25907.1074, 29076.416000000001077 ], [ 25907.1074, 29326.416000000001077 ], [ 26074.810966514978645, 29326.416000000001077 ], [ 26157.1074, 29273.74132495311278 ] ] ] ] } },
{ "type": "Feature", "properties": { "fid": 153, "id": 369, "left": 25907.1074, "top": 29076.416, "right": 26157.1074, "bottom": 28826.416, "row_index": 11, "col_index": 21 }, "geometry": { "type": "MultiPolygon", "coordinates": [ [ [ [ 25907.1074, 29076.416000000001077 ], [ 26157.1074, 29076.416000000001077 ], [ 26157.1074, 28826.416000000001077 ], [ 25907.1074, 28826.416000000001077 ], [ 25907.1074, 29076.416000000001077 ] ] ] ] } },
{ "type": "Feature", "properties": { "fid": 154, "id": 370, "left": 25907.1074, "top": 28826.416, "right": 26157.1074, "bottom": 28576.416, "row_index": 12, "col_index": 21 }, "geometry": { "type": "MultiPolygon", "coordinates": [ [ [ [ 25907.1074, 28826.416000000001077 ], [ 26157.1074, 28826.416000000001077 ], [ 26157.1074, 28576.416000000001077 ], [ 25907.1074, 28576.416000000001077 ], [ 25907.1074, 28826.416000000001077 ] ] ] ] } },
{ "type": "Feature", "properties": { "fid": 155, "id": 371, "left": 25907.1074, "top": 28576.416, "right": 26157.1074, "bottom": 28326.416, "row_index": 13, "col_index": 21 }, "geometry": { "type": "MultiPolygon", "coordinates": [ [ [ [ 25907.1074, 28576.416000000001077 ], [ 26157.1074, 28576.416000000001077 ], [ 26157.1074, 28326.416000000001077 ], [ 25907.1074, 28326.416000000001077 ], [ 25907.1074, 28576.416000000001077 ] ] ] ] } },
{ "type": "Feature", "properties": { "fid": 156, "id": 372, "left": 25907.1074, "top": 28326.416, "right": 26157.1074, "bottom": 28076.416, "row_index": 14, "col_index": 21 }, "geometry": { "type": "MultiPolygon", "coordinates": [ [ [ [ 25907.1074, 28326.416000000001077 ], [ 26157.1074, 28326.416000000001077 ], [ 26157.1074, 28076.416000000001077 ], [ 25907.1074, 28076.416000000001077 ], [ 25907.1074, 28326.416000000001077 ] ] ] ] } },
{ "type": "Feature", "properties": { "fid": 157, "id": 373, "left": 25907.1074, "top": 28076.416, "right": 26157.1074, "bottom": 27826.416, "row_index": 15, "col_index": 21 }, "geometry": { "type": "MultiPolygon", "coordinates": [ [ [ [ 25940.329859666653647, 27910.019572825742216 ], [ 25907.1074, 27930.00119711800653 ], [ 25907.1074, 28076.416000000001077 ], [ 26157.1074, 28076.416000000001077 ], [ 26157.1074, 27826.416000000001077 ], [ 26086.100191773071856, 27826.416000000001077 ], [ 25940.329859666653647, 27910.019572825742216 ] ] ] ] } },
{ "type": "Feature", "properties": { "fid": 158, "id": 374, "left": 25907.1074, "top": 27826.416, "right": 26157.1074, "bottom": 27576.416, "row_index": 16, "col_index": 21 }, "geometry": { "type": "MultiPolygon", "coordinates": [ [ [ [ 26086.100191773071856, 27826.416000000001077 ], [ 26157.1074, 27826.416000000001077 ], [ 26157.1074, 27785.691277634556172 ], [ 26086.100191773071856, 27826.416000000001077 ] ] ] ] } },
{ "type": "Feature", "properties": { "fid": 159, "id": 385, "left": 26157.1074, "top": 29326.416, "right": 26407.1074, "bottom": 29076.416, "row_index": 10, "col_index": 22 }, "geometry": { "type": "MultiPolygon", "coordinates": [ [ [ [ 26398.7823662372939, 29119.054787828339613 ], [ 26407.1074, 29116.344311719552934 ], [ 26407.1074, 29076.416000000001077 ], [ 26157.1074, 29076.416000000001077 ], [ 26157.1074, 29273.74132495311278 ], [ 26398.7823662372939, 29119.054787828339613 ] ] ] ] } },
{ "type": "Feature", "properties": { "fid": 160, "id": 386, "left": 26157.1074, "top": 29076.416, "right": 26407.1074, "bottom": 28826.416, "row_index": 11, "col_index": 22 }, "geometry": { "type": "MultiPolygon", "coordinates": [ [ [ [ 26157.1074, 29076.416000000001077 ], [ 26407.1074, 29076.416000000001077 ], [ 26407.1074, 28826.416000000001077 ], [ 26157.1074, 28826.416000000001077 ], [ 26157.1074, 29076.416000000001077 ] ] ] ] } },
{ "type": "Feature", "properties": { "fid": 161, "id": 387, "left": 26157.1074, "top": 28826.416, "right": 26407.1074, "bottom": 28576.416, "row_index": 12, "col_index": 22 }, "geometry": { "type": "MultiPolygon", "coordinates": [ [ [ [ 26157.1074, 28826.416000000001077 ], [ 26407.1074, 28826.416000000001077 ], [ 26407.1074, 28576.416000000001077 ], [ 26157.1074, 28576.416000000001077 ], [ 26157.1074, 28826.416000000001077 ] ] ] ] } },
{ "type": "Feature", "properties": { "fid": 162, "id": 388, "left": 26157.1074, "top": 28576.416, "right": 26407.1074, "bottom": 28326.416, "row_index": 13, "col_index": 22 }, "geometry": { "type": "MultiPolygon", "coordinates": [ [ [ [ 26157.1074, 28576.416000000001077 ], [ 26407.1074, 28576.416000000001077 ], [ 26407.1074, 28326.416000000001077 ], [ 26157.1074, 28326.416000000001077 ], [ 26157.1074, 28576.416000000001077 ] ] ] ] } },
{ "type": "Feature", "properties": { "fid": 163, "id": 389, "left": 26157.1074, "top": 28326.416, "right": 26407.1074, "bottom": 28076.416, "row_index": 14, "col_index": 22 }, "geometry": { "type": "MultiPolygon", "coordinates": [ [ [ [ 26157.1074, 28326.416000000001077 ], [ 26407.1074, 28326.416000000001077 ], [ 26407.1074, 28076.416000000001077 ], [ 26157.1074, 28076.416000000001077 ], [ 26157.1074, 28326.416000000001077 ] ] ] ] } },
{ "type": "Feature", "properties": { "fid": 164, "id": 390, "left": 26157.1074, "top": 28076.416, "right": 26407.1074, "bottom": 27826.416, "row_index": 15, "col_index": 22 }, "geometry": { "type": "MultiPolygon", "coordinates": [ [ [ [ 26157.1074, 28076.416000000001077 ], [ 26407.1074, 28076.416000000001077 ], [ 26407.1074, 27826.416000000001077 ], [ 26157.1074, 27826.416000000001077 ], [ 26157.1074, 28076.416000000001077 ] ] ] ] } },
{ "type": "Feature", "properties": { "fid": 165, "id": 391, "left": 26157.1074, "top": 27826.416, "right": 26407.1074, "bottom": 27576.416, "row_index": 16, "col_index": 22 }, "geometry": { "type": "MultiPolygon", "coordinates": [ [ [ [ 26157.1074, 27785.691277634556172 ], [ 26157.1074, 27826.416000000001077 ], [ 26407.1074, 27826.416000000001077 ], [ 26407.1074, 27642.308924693381414 ], [ 26157.1074, 27785.691277634556172 ] ] ] ] } },
{ "type": "Feature", "properties": { "fid": 166, "id": 402, "left": 26407.1074, "top": 29326.416, "right": 26657.1074, "bottom": 29076.416, "row_index": 10, "col_index": 23 }, "geometry": { "type": "MultiPolygon", "coordinates": [ [ [ [ 26529.744357424326154, 29076.416000000001077 ], [ 26407.1074, 29076.416000000001077 ], [ 26407.1074, 29116.344311719552934 ], [ 26529.744357424326154, 29076.416000000001077 ] ] ] ] } },
{ "type": "Feature", "properties": { "fid": 167, "id": 403, "left": 26407.1074, "top": 29076.416, "right": 26657.1074, "bottom": 28826.416, "row_index": 11, "col_index": 23 }, "geometry": { "type": "MultiPolygon", "coordinates": [ [ [ [ 26582.163368865556549, 29059.349345112157607 ], [ 26657.1074, 29040.702983298804611 ], [ 26657.1074, 28826.416000000001077 ], [ 26407.1074, 28826.416000000001077 ], [ 26407.1074, 29076.416000000001077 ], [ 26529.744357424326154, 29076.416000000001077 ], [ 26582.163368865556549, 29059.349345112157607 ] ] ] ] } },
{ "type": "Feature", "properties": { "fid": 168, "id": 404, "left": 26407.1074, "top": 28826.416, "right": 26657.1074, "bottom": 28576.416, "row_index": 12, "col_index": 23 }, "geometry": { "type": "MultiPolygon", "coordinates": [ [ [ [ 26407.1074, 28826.416000000001077 ], [ 26657.1074, 28826.416000000001077 ], [ 26657.1074, 28576.416000000001077 ], [ 26407.1074, 28576.416000000001077 ], [ 26407.1074, 28826.416000000001077 ] ] ] ] } },
{ "type": "Feature", "properties": { "fid": 169, "id": 405, "left": 26407.1074, "top": 28576.416, "right": 26657.1074, "bottom": 28326.416, "row_index": 13, "col_index": 23 }, "geometry": { "type": "MultiPolygon", "coordinates": [ [ [ [ 26407.1074, 28576.416000000001077 ], [ 26657.1074, 28576.416000000001077 ], [ 26657.1074, 28326.416000000001077 ], [ 26407.1074, 28326.416000000001077 ], [ 26407.1074, 28576.416000000001077 ] ] ] ] } },
{ "type": "Feature", "properties": { "fid": 170, "id": 406, "left": 26407.1074, "top": 28326.416, "right": 26657.1074, "bottom": 28076.416, "row_index": 14, "col_index": 23 }, "geometry": { "type": "MultiPolygon", "coordinates": [ [ [ [ 26407.1074, 28326.416000000001077 ], [ 26657.1074, 28326.416000000001077 ], [ 26657.1074, 28076.416000000001077 ], [ 26407.1074, 28076.416000000001077 ], [ 26407.1074, 28326.416000000001077 ] ] ] ] } },
{ "type": "Feature", "properties": { "fid": 171, "id": 407, "left": 26407.1074, "top": 28076.416, "right": 26657.1074, "bottom": 27826.416, "row_index": 15, "col_index": 23 }, "geometry": { "type": "MultiPolygon", "coordinates": [ [ [ [ 26407.1074, 28076.416000000001077 ], [ 26657.1074, 28076.416000000001077 ], [ 26657.1074, 27826.416000000001077 ], [ 26407.1074, 27826.416000000001077 ], [ 26407.1074, 28076.416000000001077 ] ] ] ] } },
{ "type": "Feature", "properties": { "fid": 172, "id": 408, "left": 26407.1074, "top": 27826.416, "right": 26657.1074, "bottom": 27576.416, "row_index": 16, "col_index": 23 }, "geometry": { "type": "MultiPolygon", "coordinates": [ [ [ [ 26520.325588909527141, 27577.374963407033647 ], [ 26407.1074, 27642.308924693381414 ], [ 26407.1074, 27826.416000000001077 ], [ 26657.1074, 27826.416000000001077 ], [ 26657.1074, 27579.146748524784925 ], [ 26520.325588909527141, 27577.374963407033647 ] ] ] ] } },
{ "type": "Feature", "properties": { "fid": 173, "id": 420, "left": 26657.1074, "top": 29076.416, "right": 26907.1074, "bottom": 28826.416, "row_index": 11, "col_index": 24 }, "geometry": { "type": "MultiPolygon", "coordinates": [ [ [ [ 26907.1074, 28978.502026361005846 ], [ 26907.1074, 28826.416000000001077 ], [ 26657.1074, 28826.416000000001077 ], [ 26657.1074, 29040.702983298804611 ], [ 26907.1074, 28978.502026361005846 ] ] ] ] } },
{ "type": "Feature", "properties": { "fid": 174, "id": 421, "left": 26657.1074, "top": 28826.416, "right": 26907.1074, "bottom": 28576.416, "row_index": 12, "col_index": 24 }, "geometry": { "type": "MultiPolygon", "coordinates": [ [ [ [ 26657.1074, 28826.416000000001077 ], [ 26907.1074, 28826.416000000001077 ], [ 26907.1074, 28576.416000000001077 ], [ 26657.1074, 28576.416000000001077 ], [ 26657.1074, 28826.416000000001077 ] ] ] ] } },
{ "type": "Feature", "properties": { "fid": 175, "id": 422, "left": 26657.1074, "top": 28576.416, "right": 26907.1074, "bottom": 28326.416, "row_index": 13, "col_index": 24 }, "geometry": { "type": "MultiPolygon", "coordinates": [ [ [ [ 26657.1074, 28576.416000000001077 ], [ 26907.1074, 28576.416000000001077 ], [ 26907.1074, 28326.416000000001077 ], [ 26657.1074, 28326.416000000001077 ], [ 26657.1074, 28576.416000000001077 ] ] ] ] } },
{ "type": "Feature", "properties": { "fid": 176, "id": 423, "left": 26657.1074, "top": 28326.416, "right": 26907.1074, "bottom": 28076.416, "row_index": 14, "col_index": 24 }, "geometry": { "type": "MultiPolygon", "coordinates": [ [ [ [ 26657.1074, 28326.416000000001077 ], [ 26907.1074, 28326.416000000001077 ], [ 26907.1074, 28076.416000000001077 ], [ 26657.1074, 28076.416000000001077 ], [ 26657.1074, 28326.416000000001077 ] ] ] ] } },
{ "type": "Feature", "properties": { "fid": 177, "id": 424, "left": 26657.1074, "top": 28076.416, "right": 26907.1074, "bottom": 27826.416, "row_index": 15, "col_index": 24 }, "geometry": { "type": "MultiPolygon", "coordinates": [ [ [ [ 26657.1074, 28076.416000000001077 ], [ 26907.1074, 28076.416000000001077 ], [ 26907.1074, 27826.416000000001077 ], [ 26657.1074, 27826.416000000001077 ], [ 26657.1074, 28076.416000000001077 ] ] ] ] } },
{ "type": "Feature", "properties": { "fid": 178, "id": 425, "left": 26657.1074, "top": 27826.416, "right": 26907.1074, "bottom": 27576.416, "row_index": 16, "col_index": 24 }, "geometry": { "type": "MultiPolygon", "coordinates": [ [ [ [ 26657.1074, 27579.146748524784925 ], [ 26657.1074, 27826.416000000001077 ], [ 26907.1074, 27826.416000000001077 ], [ 26907.1074, 27582.385090493691678 ], [ 26657.1074, 27579.146748524784925 ] ] ] ] } },
{ "type": "Feature", "properties": { "fid": 179, "id": 437, "left": 26907.1074, "top": 29076.416, "right": 27157.1074, "bottom": 28826.416, "row_index": 11, "col_index": 25 }, "geometry": { "type": "MultiPolygon", "coordinates": [ [ [ [ 27157.1074, 28916.301069423203444 ], [ 27157.1074, 28826.416000000001077 ], [ 26907.1074, 28826.416000000001077 ], [ 26907.1074, 28978.502026361005846 ], [ 27157.1074, 28916.301069423203444 ] ] ] ] } },
{ "type": "Feature", "properties": { "fid": 180, "id": 438, "left": 26907.1074, "top": 28826.416, "right": 27157.1074, "bottom": 28576.416, "row_index": 12, "col_index": 25 }, "geometry": { "type": "MultiPolygon", "coordinates": [ [ [ [ 26907.1074, 28826.416000000001077 ], [ 27157.1074, 28826.416000000001077 ], [ 27157.1074, 28576.416000000001077 ], [ 26907.1074, 28576.416000000001077 ], [ 26907.1074, 28826.416000000001077 ] ] ] ] } },
{ "type": "Feature", "properties": { "fid": 181, "id": 439, "left": 26907.1074, "top": 28576.416, "right": 27157.1074, "bottom": 28326.416, "row_index": 13, "col_index": 25 }, "geometry": { "type": "MultiPolygon", "coordinates": [ [ [ [ 26907.1074, 28576.416000000001077 ], [ 27157.1074, 28576.416000000001077 ], [ 27157.1074, 28326.416000000001077 ], [ 26907.1074, 28326.416000000001077 ], [ 26907.1074, 28576.416000000001077 ] ] ] ] } },
{ "type": "Feature", "properties": { "fid": 182, "id": 440, "left": 26907.1074, "top": 28326.416, "right": 27157.1074, "bottom": 28076.416, "row_index": 14, "col_index": 25 }, "geometry": { "type": "MultiPolygon", "coordinates": [ [ [ [ 26907.1074, 28326.416000000001077 ], [ 27157.1074, 28326.416000000001077 ], [ 27157.1074, 28076.416000000001077 ], [ 26907.1074, 28076.416000000001077 ], [ 26907.1074, 28326.416000000001077 ] ] ] ] } },
{ "type": "Feature", "properties": { "fid": 183, "id": 441, "left": 26907.1074, "top": 28076.416, "right": 27157.1074, "bottom": 27826.416, "row_index": 15, "col_index": 25 }, "geometry": { "type": "MultiPolygon", "coordinates": [ [ [ [ 26907.1074, 28076.416000000001077 ], [ 27157.1074, 28076.416000000001077 ], [ 27157.1074, 27826.416000000001077 ], [ 26907.1074, 27826.416000000001077 ], [ 26907.1074, 28076.416000000001077 ] ] ] ] } },
{ "type": "Feature", "properties": { "fid": 184, "id": 442, "left": 26907.1074, "top": 27826.416, "right": 27157.1074, "bottom": 27576.416, "row_index": 16, "col_index": 25 }, "geometry": { "type": "MultiPolygon", "coordinates": [ [ [ [ 27069.047038634394994, 27584.482754206568643 ], [ 26907.1074, 27582.385090493691678 ], [ 26907.1074, 27826.416000000001077 ], [ 27157.1074, 27826.416000000001077 ], [ 27157.1074, 27664.251468643240514 ], [ 27069.047038634394994, 27584.482754206568643 ] ] ] ] } },
{ "type": "Feature", "properties": { "fid": 185, "id": 454, "left": 27157.1074, "top": 29076.416, "right": 27407.1074, "bottom": 28826.416, "row_index": 11, "col_index": 26 }, "geometry": { "type": "MultiPolygon", "coordinates": [ [ [ [ 27176.374679707521864, 28911.50729648162087 ], [ 27278.730876924542827, 28826.416000000001077 ], [ 27157.1074, 28826.416000000001077 ], [ 27157.1074, 28916.301069423203444 ], [ 27176.374679707521864, 28911.50729648162087 ] ] ] ] } },
{ "type": "Feature", "properties": { "fid": 186, "id": 455, "left": 27157.1074, "top": 28826.416, "right": 27407.1074, "bottom": 28576.416, "row_index": 12, "col_index": 26 }, "geometry": { "type": "MultiPolygon", "coordinates": [ [ [ [ 27407.1074, 28719.693348286666151 ], [ 27407.1074, 28576.416000000001077 ], [ 27157.1074, 28576.416000000001077 ], [ 27157.1074, 28826.416000000001077 ], [ 27278.730876924542827, 28826.416000000001077 ], [ 27407.1074, 28719.693348286666151 ] ] ] ] } },
{ "type": "Feature", "properties": { "fid": 187, "id": 456, "left": 27157.1074, "top": 28576.416, "right": 27407.1074, "bottom": 28326.416, "row_index": 13, "col_index": 26 }, "geometry": { "type": "MultiPolygon", "coordinates": [ [ [ [ 27157.1074, 28576.416000000001077 ], [ 27407.1074, 28576.416000000001077 ], [ 27407.1074, 28326.416000000001077 ], [ 27157.1074, 28326.416000000001077 ], [ 27157.1074, 28576.416000000001077 ] ] ] ] } },
{ "type": "Feature", "properties": { "fid": 188, "id": 457, "left": 27157.1074, "top": 28326.416, "right": 27407.1074, "bottom": 28076.416, "row_index": 14, "col_index": 26 }, "geometry": { "type": "MultiPolygon", "coordinates": [ [ [ [ 27157.1074, 28326.416000000001077 ], [ 27407.1074, 28326.416000000001077 ], [ 27407.1074, 28076.416000000001077 ], [ 27157.1074, 28076.416000000001077 ], [ 27157.1074, 28326.416000000001077 ] ] ] ] } },
{ "type": "Feature", "properties": { "fid": 189, "id": 458, "left": 27157.1074, "top": 28076.416, "right": 27407.1074, "bottom": 27826.416, "row_index": 15, "col_index": 26 }, "geometry": { "type": "MultiPolygon", "coordinates": [ [ [ [ 27336.128302277385956, 27826.416000000001077 ], [ 27157.1074, 27826.416000000001077 ], [ 27157.1074, 28076.416000000001077 ], [ 27407.1074, 28076.416000000001077 ], [ 27407.1074, 27890.711799942284415 ], [ 27336.128302277385956, 27826.416000000001077 ] ] ] ] } },
{ "type": "Feature", "properties": { "fid": 190, "id": 459, "left": 27157.1074, "top": 27826.416, "right": 27407.1074, "bottom": 27576.416, "row_index": 16, "col_index": 26 }, "geometry": { "type": "MultiPolygon", "coordinates": [ [ [ [ 27157.1074, 27664.251468643240514 ], [ 27157.1074, 27826.416000000001077 ], [ 27336.128302277385956, 27826.416000000001077 ], [ 27157.1074, 27664.251468643240514 ] ] ] ] } },
{ "type": "Feature", "properties": { "fid": 191, "id": 472, "left": 27407.1074, "top": 28826.416, "right": 27657.1074, "bottom": 28576.416, "row_index": 12, "col_index": 27 }, "geometry": { "type": "MultiPolygon", "coordinates": [ [ [ [ 27579.455514605699136, 28576.416000000001077 ], [ 27407.1074, 28576.416000000001077 ], [ 27407.1074, 28719.693348286666151 ], [ 27579.455514605699136, 28576.416000000001077 ] ] ] ] } },
{ "type": "Feature", "properties": { "fid": 192, "id": 473, "left": 27407.1074, "top": 28576.416, "right": 27657.1074, "bottom": 28326.416, "row_index": 13, "col_index": 27 }, "geometry": { "type": "MultiPolygon", "coordinates": [ [ [ [ 27657.1074, 28511.862022985460499 ], [ 27657.1074, 28326.416000000001077 ], [ 27407.1074, 28326.416000000001077 ], [ 27407.1074, 28576.416000000001077 ], [ 27579.455514605699136, 28576.416000000001077 ], [ 27657.1074, 28511.862022985460499 ] ] ] ] } },
{ "type": "Feature", "properties": { "fid": 193, "id": 474, "left": 27407.1074, "top": 28326.416, "right": 27657.1074, "bottom": 28076.416, "row_index": 14, "col_index": 27 }, "geometry": { "type": "MultiPolygon", "coordinates": [ [ [ [ 27612.11482778267964, 28076.416000000001077 ], [ 27407.1074, 28076.416000000001077 ], [ 27407.1074, 28326.416000000001077 ], [ 27657.1074, 28326.416000000001077 ], [ 27657.1074, 28117.172131241324678 ], [ 27612.11482778267964, 28076.416000000001077 ] ] ] ] } },
{ "type": "Feature", "properties": { "fid": 194, "id": 475, "left": 27407.1074, "top": 28076.416, "right": 27657.1074, "bottom": 27826.416, "row_index": 15, "col_index": 27 }, "geometry": { "type": "MultiPolygon", "coordinates": [ [ [ [ 27407.1074, 27890.711799942284415 ], [ 27407.1074, 28076.416000000001077 ], [ 27612.11482778267964, 28076.416000000001077 ], [ 27407.1074, 27890.711799942284415 ] ] ] ] } },
{ "type": "Feature", "properties": { "fid": 195, "id": 490, "left": 27657.1074, "top": 28576.416, "right": 27907.1074, "bottom": 28326.416, "row_index": 13, "col_index": 28 }, "geometry": { "type": "MultiPolygon", "coordinates": [ [ [ [ 27880.180152286859084, 28326.416000000001077 ], [ 27657.1074, 28326.416000000001077 ], [ 27657.1074, 28511.862022985460499 ], [ 27880.180152286859084, 28326.416000000001077 ] ] ] ] } },
{ "type": "Feature", "properties": { "fid": 196, "id": 491, "left": 27657.1074, "top": 28326.416, "right": 27907.1074, "bottom": 28076.416, "row_index": 14, "col_index": 28 }, "geometry": { "type": "MultiPolygon", "coordinates": [ [ [ [ 27884.310643342203548, 28322.982218279292283 ], [ 27657.1074, 28117.172131241324678 ], [ 27657.1074, 28326.416000000001077 ], [ 27880.180152286859084, 28326.416000000001077 ], [ 27884.310643342203548, 28322.982218279292283 ] ] ] ] } }
]
}
