{
"type": "FeatureCollection",
"name": "refactored centroids",
"crs": { "type": "name", "properties": { "name": "urn:ogc:def:crs:EPSG::3414" } },
"features": [
{ "type": "Feature", "properties": { "fid": 1, "grid_id": "G_000_003", "row_index": 3, "col_index": 0, "x_svy": 20903.338, "y_svy": 30869.385, "lon": 103.76955200549425, "lat": 1.295445460090842 }, "geometry": { "type": "Point", "coordinates": [ 20903.338163197724498, 30869.385299545960152 ] } },
{ "type": "Feature", "properties": { "fid": 2, "grid_id": "G_000_004", "row_index": 4, "col_index": 0, "x_svy": 20860.093, "y_svy": 30653.237, "lon": 103.76916347526316, "lat": 1.2934906797513928 }, "geometry": { "type": "Point", "coordinates": [ 20860.092660329377395, 30653.236726625655137 ] } },
{ "type": "Feature", "properties": { "fid": 3, "grid_id": "G_000_005", "row_index": 5, "col_index": 0, "x_svy": 20810.638, "y_svy": 30468.764, "lon": 103.7687191445071, "lat": 1.2918223657496251 }, "geometry": { "type": "Point", "coordinates": [ 20810.637781992052624, 30468.764307872934296 ] } },
{ "type": "Feature", "properties": { "fid": 4, "grid_id": "G_001_000", "row_index": 0, "col_index": 1, "x_svy": 21106.006, "y_svy": 31682.193, "lon": 103.77137288450947, "lat": 1.3027962521222987 }, "geometry": { "type": "Point", "coordinates": [ 21106.006077772533899, 31682.193451282786555 ] } },
{ "type": "Feature", "properties": { "fid": 5, "grid_id": "G_001_001", "row_index": 1, "col_index": 1, "x_svy": 21062.553, "y_svy": 31440.772, "lon": 103.77098249612773, "lat": 1.3006129149057268 }, "geometry": { "type": "Point", "coordinates": [ 21062.553406543964229, 31440.772196441830602 ] } },
{ "type": "Feature", "properties": { "fid": 6, "grid_id": "G_001_002", "row_index": 2, "col_index": 1, "x_svy": 21042.813, "y_svy": 31199.416, "lon": 103.77080517509184, "lat": 1.2984301695026708 }, "geometry": { "type": "Point", "coordinates": [ 21042.813185202128807, 31199.415801246406772 ] } },
{ "type": "Feature", "properties": { "fid": 7, "grid_id": "G_001_003", "row_index": 3, "col_index": 1, "x_svy": 21033.37, "y_svy": 30950.536, "lon": 103.77072038118231, "lat": 1.2961793877167151 }, "geometry": { "type": "Point", "coordinates": [ 21033.37021455899594, 30950.536038280308276 ] } },
{ "type": "Feature", "properties": { "fid": 8, "grid_id": "G_001_004", "row_index": 4, "col_index": 1, "x_svy": 21032.107, "y_svy": 30701.416, "lon": 103.77070908954515, "lat": 1.2939264347578687 }, "geometry": { "type": "Point", "coordinates": [ 21032.1074, 30701.416000000001077 ] } },
{ "type": "Feature", "properties": { "fid": 9, "grid_id": "G_001_005", "row_index": 5, "col_index": 1, "x_svy": 21032.52, "y_svy": 30451.857, "lon": 103.77071284949109, "lat": 1.291669509263782 }, "geometry": { "type": "Point", "coordinates": [ 21032.519695768423844, 30451.856662070811581 ] } },
{ "type": "Feature", "properties": { "fid": 10, "grid_id": "G_001_006", "row_index": 6, "col_index": 1, "x_svy": 21085.761, "y_svy": 30301.348, "lon": 103.77119127887293, "lat": 1.2903083779423179 }, "geometry": { "type": "Point", "coordinates": [ 21085.761122351181257, 30301.348388934198738 ] } },
{ "type": "Feature", "properties": { "fid": 11, "grid_id": "G_002_000", "row_index": 0, "col_index": 2, "x_svy": 21266.403, "y_svy": 31659.649, "lon": 103.77281413006632, "lat": 1.3025924044718606 }, "geometry": { "type": "Point", "coordinates": [ 21266.403154409694253, 31659.64911747107908 ] } },
{ "type": "Feature", "properties": { "fid": 12, "grid_id": "G_002_001", "row_index": 1, "col_index": 2, "x_svy": 21282.107, "y_svy": 31451.416, "lon": 103.77295528463698, "lat": 1.3007092219333489 }, "geometry": { "type": "Point", "coordinates": [ 21282.1074, 31451.416000000001077 ] } },
{ "type": "Feature", "properties": { "fid": 13, "grid_id": "G_002_002", "row_index": 2, "col_index": 2, "x_svy": 21282.107, "y_svy": 31201.416, "lon": 103.77295533832516, "lat": 1.2984483111826426 }, "geometry": { "type": "Point", "coordinates": [ 21282.1074, 31201.416000000001077 ] } },
{ "type": "Feature", "properties": { "fid": 14, "grid_id": "G_002_003", "row_index": 3, "col_index": 2, "x_svy": 21282.107, "y_svy": 30951.416, "lon": 103.77295539191985, "lat": 1.2961874003913434 }, "geometry": { "type": "Point", "coordinates": [ 21282.1074, 30951.416000000001077 ] } },
{ "type": "Feature", "properties": { "fid": 15, "grid_id": "G_002_004", "row_index": 4, "col_index": 2, "x_svy": 21282.107, "y_svy": 30701.416, "lon": 103.77295544542106, "lat": 1.2939264895595215 }, "geometry": { "type": "Point", "coordinates": [ 21282.1074, 30701.416000000001077 ] } },
{ "type": "Feature", "properties": { "fid": 16, "grid_id": "G_002_005", "row_index": 5, "col_index": 2, "x_svy": 21282.107, "y_svy": 30451.416, "lon": 103.77295549882879, "lat": 1.2916655786872477 }, "geometry": { "type": "Point", "coordinates": [ 21282.1074, 30451.416000000001077 ] } },
{ "type": "Feature", "properties": { "fid": 17, "grid_id": "G_002_006", "row_index": 6, "col_index": 2, "x_svy": 21297.469, "y_svy": 30264.156, "lon": 103.7730935731353, "lat": 1.2899720727502169 }, "geometry": { "type": "Point", "coordinates": [ 21297.469455396636477, 30264.156384480265842 ] } },
{ "type": "Feature", "properties": { "fid": 18, "grid_id": "G_003_000", "row_index": 0, "col_index": 3, "x_svy": 21470.253, "y_svy": 31610.368, "lon": 103.77464582536514, "lat": 1.3021467700535978 }, "geometry": { "type": "Point", "coordinates": [ 21470.253166376081936, 31610.36831208167132 ] } },
{ "type": "Feature", "properties": { "fid": 19, "grid_id": "G_003_001", "row_index": 1, "col_index": 3, "x_svy": 21529.929, "y_svy": 31449.053, "lon": 103.77518207195291, "lat": 1.3006879000837741 }, "geometry": { "type": "Point", "coordinates": [ 21529.928863692406594, 31449.052519715460221 ] } },
{ "type": "Feature", "properties": { "fid": 20, "grid_id": "G_003_002", "row_index": 2, "col_index": 3, "x_svy": 21532.107, "y_svy": 31201.416, "lon": 103.77520169827905, "lat": 1.2984483641672195 }, "geometry": { "type": "Point", "coordinates": [ 21532.1074, 31201.416000000001077 ] } },
{ "type": "Feature", "properties": { "fid": 21, "grid_id": "G_003_003", "row_index": 3, "col_index": 3, "x_svy": 21532.107, "y_svy": 30951.416, "lon": 103.77520174987976, "lat": 1.2961874532836313 }, "geometry": { "type": "Point", "coordinates": [ 21532.1074, 30951.416000000001077 ] } },
{ "type": "Feature", "properties": { "fid": 22, "grid_id": "G_003_004", "row_index": 4, "col_index": 3, "x_svy": 21532.107, "y_svy": 30701.416, "lon": 103.77520180139047, "lat": 1.2939265423595208 }, "geometry": { "type": "Point", "coordinates": [ 21532.1074, 30701.416000000001077 ] } },
{ "type": "Feature", "properties": { "fid": 23, "grid_id": "G_003_005", "row_index": 5, "col_index": 3, "x_svy": 21532.107, "y_svy": 30451.416, "lon": 103.77520185281118, "lat": 1.2916656313949579 }, "geometry": { "type": "Point", "coordinates": [ 21532.1074, 30451.416000000001077 ] } },
{ "type": "Feature", "properties": { "fid": 24, "grid_id": "G_003_006", "row_index": 6, "col_index": 3, "x_svy": 21541.85, "y_svy": 30219.568, "lon": 103.77528944612958, "lat": 1.2895688841724113 }, "geometry": { "type": "Point", "coordinates": [ 21541.850497288178303, 30219.568170768638083 ] } },
{ "type": "Feature", "properties": { "fid": 25, "grid_id": "G_003_007", "row_index": 7, "col_index": 3, "x_svy": 21643.097, "y_svy": 30068.443, "lon": 103.7761992139411, "lat": 1.2882021853985783 }, "geometry": { "type": "Point", "coordinates": [ 21643.09656963827365, 30068.443309919690364 ] } },
{ "type": "Feature", "properties": { "fid": 26, "grid_id": "G_004_001", "row_index": 1, "col_index": 4, "x_svy": 21759.063, "y_svy": 31401.133, "lon": 103.77724095427051, "lat": 1.3002545814803521 }, "geometry": { "type": "Point", "coordinates": [ 21759.062985232401843, 31401.133172597288649 ] } },
{ "type": "Feature", "properties": { "fid": 27, "grid_id": "G_004_002", "row_index": 2, "col_index": 4, "x_svy": 21782.107, "y_svy": 31201.416, "lon": 103.77744805832295, "lat": 1.2984484151431455 }, "geometry": { "type": "Point", "coordinates": [ 21782.1074, 31201.416000000001077 ] } },
{ "type": "Feature", "properties": { "fid": 28, "grid_id": "G_004_003", "row_index": 3, "col_index": 4, "x_svy": 21782.107, "y_svy": 30951.416, "lon": 103.77744810792967, "lat": 1.2961875041707664 }, "geometry": { "type": "Point", "coordinates": [ 21782.1074, 30951.416000000001077 ] } },
{ "type": "Feature", "properties": { "fid": 29, "grid_id": "G_004_004", "row_index": 4, "col_index": 4, "x_svy": 21782.107, "y_svy": 30701.416, "lon": 103.77744815744988, "lat": 1.2939265931578652 }, "geometry": { "type": "Point", "coordinates": [ 21782.1074, 30701.416000000001077 ] } },
{ "type": "Feature", "properties": { "fid": 30, "grid_id": "G_004_005", "row_index": 5, "col_index": 4, "x_svy": 21782.107, "y_svy": 30451.416, "lon": 103.77744820688355, "lat": 1.2916656821045125 }, "geometry": { "type": "Point", "coordinates": [ 21782.1074, 30451.416000000001077 ] } },
{ "type": "Feature", "properties": { "fid": 31, "grid_id": "G_004_006", "row_index": 6, "col_index": 4, "x_svy": 21782.107, "y_svy": 30201.416, "lon": 103.77744825623071, "lat": 1.2894047710107783 }, "geometry": { "type": "Point", "coordinates": [ 21782.1074, 30201.416000000001077 ] } },
{ "type": "Feature", "properties": { "fid": 32, "grid_id": "G_004_007", "row_index": 7, "col_index": 4, "x_svy": 21813.628, "y_svy": 30019.597, "lon": 103.77773151534755, "lat": 1.28776047130902 }, "geometry": { "type": "Point", "coordinates": [ 21813.627776859771984, 30019.597051681448647 ] } },
{ "type": "Feature", "properties": { "fid": 33, "grid_id": "G_005_001", "row_index": 1, "col_index": 5, "x_svy": 21940.778, "y_svy": 31346.619, "lon": 103.7788737585129, "lat": 1.2997616067615143 }, "geometry": { "type": "Point", "coordinates": [ 21940.778342407789751, 31346.618565444678097 ] } },
{ "type": "Feature", "properties": { "fid": 34, "grid_id": "G_005_002", "row_index": 2, "col_index": 5, "x_svy": 22023.123, "y_svy": 31190.063, "lon": 103.77961369372859, "lat": 1.2983457887040359 }, "geometry": { "type": "Point", "coordinates": [ 22023.123211590285791, 31190.062868469140085 ] } },
{ "type": "Feature", "properties": { "fid": 35, "grid_id": "G_005_003", "row_index": 3, "col_index": 5, "x_svy": 22032.107, "y_svy": 30951.416, "lon": 103.7796944660661, "lat": 1.296187553052748 }, "geometry": { "type": "Point", "coordinates": [ 22032.107399999997142, 30951.416000000001077 ] } },
{ "type": "Feature", "properties": { "fid": 36, "grid_id": "G_005_004", "row_index": 4, "col_index": 5, "x_svy": 22032.107, "y_svy": 30701.416, "lon": 103.77969451359581, "lat": 1.2939266419545556 }, "geometry": { "type": "Point", "coordinates": [ 22032.107399999997142, 30701.416000000001077 ] } },
{ "type": "Feature", "properties": { "fid": 37, "grid_id": "G_005_005", "row_index": 5, "col_index": 5, "x_svy": 22032.107, "y_svy": 30451.416, "lon": 103.77969456104246, "lat": 1.2916657308159112 }, "geometry": { "type": "Point", "coordinates": [ 22032.107399999997142, 30451.416000000001077 ] } },
{ "type": "Feature", "properties": { "fid": 38, "grid_id": "G_005_006", "row_index": 6, "col_index": 5, "x_svy": 22032.107, "y_svy": 30201.416, "lon": 103.77969460840606, "lat": 1.2894048196368859 }, "geometry": { "type": "Point", "coordinates": [ 22032.107399999997142, 30201.416000000001077 ] } },
{ "type": "Feature", "properties": { "fid": 39, "grid_id": "G_005_007", "row_index": 7, "col_index": 5, "x_svy": 22035.72, "y_svy": 29954.851, "lon": 103.77972711609529, "lat": 1.2871749746652992 }, "geometry": { "type": "Point", "coordinates": [ 22035.720044283218158, 29954.85107081852766 ] } },
{ "type": "Feature", "properties": { "fid": 40, "grid_id": "G_005_008", "row_index": 8, "col_index": 5, "x_svy": 22092.715, "y_svy": 29744.301, "lon": 103.78023927949393, "lat": 1.2852708465517955 }, "geometry": { "type": "Point", "coordinates": [ 22092.715167852478771, 29744.301135151326889 ] } },
{ "type": "Feature", "properties": { "fid": 41, "grid_id": "G_006_002", "row_index": 2, "col_index": 6, "x_svy": 22245.604, "y_svy": 31130.171, "lon": 103.78161278967096, "lat": 1.297804189584254 }, "geometry": { "type": "Point", "coordinates": [ 22245.603672720531904, 31130.170966350844537 ] } },
{ "type": "Feature", "properties": { "fid": 42, "grid_id": "G_006_003", "row_index": 3, "col_index": 6, "x_svy": 22282.107, "y_svy": 30951.416, "lon": 103.78194082428561, "lat": 1.2961875999295769 }, "geometry": { "type": "Point", "coordinates": [ 22282.107399999997142, 30951.416000000001077 ] } },
{ "type": "Feature", "properties": { "fid": 43, "grid_id": "G_006_004", "row_index": 4, "col_index": 6, "x_svy": 22282.107, "y_svy": 30701.416, "lon": 103.78194086982479, "lat": 1.2939266887495908 }, "geometry": { "type": "Point", "coordinates": [ 22282.107399999997142, 30701.416000000001077 ] } },
{ "type": "Feature", "properties": { "fid": 44, "grid_id": "G_006_005", "row_index": 5, "col_index": 6, "x_svy": 22282.107, "y_svy": 30451.416, "lon": 103.78194091528441, "lat": 1.2916657775291538 }, "geometry": { "type": "Point", "coordinates": [ 22282.107399999997142, 30451.416000000001077 ] } },
{ "type": "Feature", "properties": { "fid": 45, "grid_id": "G_006_006", "row_index": 6, "col_index": 6, "x_svy": 22282.107, "y_svy": 30201.416, "lon": 103.78194096066446, "lat": 1.2894048662683359 }, "geometry": { "type": "Point", "coordinates": [ 22282.107399999997142, 30201.416000000001077 ] } },
{ "type": "Feature", "properties": { "fid": 46, "grid_id": "G_006_007", "row_index": 7, "col_index": 6, "x_svy": 22282.107, "y_svy": 29951.416, "lon": 103.78194100596494, "lat": 1.2871439549672077 }, "geometry": { "type": "Point", "coordinates": [ 22282.107399999997142, 29951.416000000001077 ] } },
{ "type": "Feature", "properties": { "fid": 47, "grid_id": "G_006_008", "row_index": 8, "col_index": 6, "x_svy": 22282.118, "y_svy": 29701.426, "lon": 103.78194114462204, "lat": 1.284883137472179 }, "geometry": { "type": "Point", "coordinates": [ 22282.117798884410149, 29701.426376838408032 ] } },
{ "type": "Feature", "properties": { "fid": 48, "grid_id": "G_006_009", "row_index": 9, "col_index": 6, "x_svy": 22321.071, "y_svy": 29475.879, "lon": 103.78229119294689, "lat": 1.2828433774278196 }, "geometry": { "type": "Point", "coordinates": [ 22321.070781519119919, 29475.879379195161164 ] } },
{ "type": "Feature", "properties": { "fid": 49, "grid_id": "G_006_010", "row_index": 10, "col_index": 6, "x_svy": 22385.675, "y_svy": 29296.54, "lon": 103.78287171444831, "lat": 1.2812215062455563 }, "geometry": { "type": "Point", "coordinates": [ 22385.674542126645974, 29296.539895085632452 ] } },
{ "type": "Feature", "properties": { "fid": 50, "grid_id": "G_007_002", "row_index": 2, "col_index": 7, "x_svy": 22413.001, "y_svy": 31079.952, "lon": 103.78311693315442, "lat": 1.2973500566810845 }, "geometry": { "type": "Point", "coordinates": [ 22413.000564630005101, 31079.95189877800658 ] } },
{ "type": "Feature", "properties": { "fid": 51, "grid_id": "G_007_003", "row_index": 3, "col_index": 7, "x_svy": 22483.966, "y_svy": 30916.048, "lon": 103.78375462072037, "lat": 1.2958677850919356 }, "geometry": { "type": "Point", "coordinates": [ 22483.966362329774711, 30916.048487464326172 ] } },
{ "type": "Feature", "properties": { "fid": 52, "grid_id": "G_007_004", "row_index": 4, "col_index": 7, "x_svy": 22531.618, "y_svy": 30700.932, "lon": 103.78418282685023, "lat": 1.2939223546290457 }, "geometry": { "type": "Point", "coordinates": [ 22531.617788523592026, 30700.931811589140125 ] } },
{ "type": "Feature", "properties": { "fid": 53, "grid_id": "G_007_005", "row_index": 5, "col_index": 7, "x_svy": 22532.107, "y_svy": 30451.416, "lon": 103.78418726960592, "lat": 1.2916658222442396 }, "geometry": { "type": "Point", "coordinates": [ 22532.107399999997142, 30451.416000000001077 ] } },
{ "type": "Feature", "properties": { "fid": 54, "grid_id": "G_007_006", "row_index": 6, "col_index": 7, "x_svy": 22532.107, "y_svy": 30201.416, "lon": 103.78418731300242, "lat": 1.289404910905128 }, "geometry": { "type": "Point", "coordinates": [ 22532.107399999997142, 30201.416000000001077 ] } },
{ "type": "Feature", "properties": { "fid": 55, "grid_id": "G_007_007", "row_index": 7, "col_index": 7, "x_svy": 22532.107, "y_svy": 29951.416, "lon": 103.78418735632282, "lat": 1.2871439995257057 }, "geometry": { "type": "Point", "coordinates": [ 22532.107399999997142, 29951.416000000001077 ] } },
{ "type": "Feature", "properties": { "fid": 56, "grid_id": "G_007_008", "row_index": 8, "col_index": 7, "x_svy": 22532.107, "y_svy": 29701.416, "lon": 103.78418739956714, "lat": 1.2848830881060447 }, "geometry": { "type": "Point", "coordinates": [ 22532.107399999997142, 29701.416000000001077 ] } },
{ "type": "Feature", "properties": { "fid": 57, "grid_id": "G_007_009", "row_index": 9, "col_index": 7, "x_svy": 22532.107, "y_svy": 29451.416, "lon": 103.78418744273536, "lat": 1.2826221766462145 }, "geometry": { "type": "Point", "coordinates": [ 22532.107399999997142, 29451.416000000001077 ] } },
{ "type": "Feature", "properties": { "fid": 58, "grid_id": "G_007_010", "row_index": 10, "col_index": 7, "x_svy": 22547.112, "y_svy": 29213.805, "lon": 103.78432230758021, "lat": 1.2804733069382168 }, "geometry": { "type": "Point", "coordinates": [ 22547.112209115708538, 29213.804719494404708 ] } },
{ "type": "Feature", "properties": { "fid": 59, "grid_id": "G_007_011", "row_index": 11, "col_index": 7, "x_svy": 22609.378, "y_svy": 29048.952, "lon": 103.7848818211947, "lat": 1.27898245067479 }, "geometry": { "type": "Point", "coordinates": [ 22609.378439548345341, 29048.952299344022322 ] } },
{ "type": "Feature", "properties": { "fid": 60, "grid_id": "G_008_004", "row_index": 4, "col_index": 8, "x_svy": 22736.359, "y_svy": 30646.265, "lon": 103.78602251994356, "lat": 1.2934280027650238 }, "geometry": { "type": "Point", "coordinates": [ 22736.358669957484381, 30646.265021846662421 ] } },
{ "type": "Feature", "properties": { "fid": 61, "grid_id": "G_008_005", "row_index": 5, "col_index": 8, "x_svy": 22782.107, "y_svy": 30451.416, "lon": 103.78643362400354, "lat": 1.2916658649611688 }, "geometry": { "type": "Point", "coordinates": [ 22782.107399999997142, 30451.416000000001077 ] } },
{ "type": "Feature", "properties": { "fid": 62, "grid_id": "G_008_006", "row_index": 6, "col_index": 8, "x_svy": 22782.107, "y_svy": 30201.416, "lon": 103.78643366541648, "lat": 1.2894049535472616 }, "geometry": { "type": "Point", "coordinates": [ 22782.107399999997142, 30201.416000000001077 ] } },
{ "type": "Feature", "properties": { "fid": 63, "grid_id": "G_008_007", "row_index": 7, "col_index": 8, "x_svy": 22782.107, "y_svy": 29951.416, "lon": 103.78643370675681, "lat": 1.2871440420930442 }, "geometry": { "type": "Point", "coordinates": [ 22782.107399999997142, 29951.416000000001077 ] } },
{ "type": "Feature", "properties": { "fid": 64, "grid_id": "G_008_008", "row_index": 8, "col_index": 8, "x_svy": 22782.107, "y_svy": 29701.416, "lon": 103.78643374802452, "lat": 1.2848831305985884 }, "geometry": { "type": "Point", "coordinates": [ 22782.107399999997142, 29701.416000000001077 ] } },
{ "type": "Feature", "properties": { "fid": 65, "grid_id": "G_008_009", "row_index": 9, "col_index": 8, "x_svy": 22782.107, "y_svy": 29451.416, "lon": 103.78643378921963, "lat": 1.2826222190639633 }, "geometry": { "type": "Point", "coordinates": [ 22782.107399999997142, 29451.416000000001077 ] } },
{ "type": "Feature", "properties": { "fid": 66, "grid_id": "G_008_010", "row_index": 10, "col_index": 8, "x_svy": 22782.107, "y_svy": 29201.416, "lon": 103.78643383034212, "lat": 1.2803613074892399 }, "geometry": { "type": "Point", "coordinates": [ 22782.107399999997142, 29201.416000000001077 ] } },
{ "type": "Feature", "properties": { "fid": 67, "grid_id": "G_008_011", "row_index": 11, "col_index": 8, "x_svy": 22796.069, "y_svy": 29010.568, "lon": 103.78655930972776, "lat": 1.2786353514442423 }, "geometry": { "type": "Point", "coordinates": [ 22796.068762876169785, 29010.56838564548525 ] } },
{ "type": "Feature", "properties": { "fid": 68, "grid_id": "G_009_004", "row_index": 4, "col_index": 9, "x_svy": 22907.418, "y_svy": 30576.64, "lon": 103.78755957277541, "lat": 1.292798368767949 }, "geometry": { "type": "Point", "coordinates": [ 22907.418105399632623, 30576.640183608924417 ] } },
{ "type": "Feature", "properties": { "fid": 69, "grid_id": "G_009_005", "row_index": 5, "col_index": 9, "x_svy": 23008.691, "y_svy": 30415.103, "lon": 103.78846958053143, "lat": 1.2913375030909733 }, "geometry": { "type": "Point", "coordinates": [ 23008.691271715717448, 30415.103337443415512 ] } },
{ "type": "Feature", "properties": { "fid": 70, "grid_id": "G_009_006", "row_index": 6, "col_index": 9, "x_svy": 23032.107, "y_svy": 30201.416, "lon": 103.78868001790315, "lat": 1.2894049941947368 }, "geometry": { "type": "Point", "coordinates": [ 23032.1074, 30201.416000000001077 ] } },
{ "type": "Feature", "properties": { "fid": 71, "grid_id": "G_009_007", "row_index": 7, "col_index": 9, "x_svy": 23032.107, "y_svy": 29951.416, "lon": 103.78868005726339, "lat": 1.2871440826692233 }, "geometry": { "type": "Point", "coordinates": [ 23032.1074, 29951.416000000001077 ] } },
{ "type": "Feature", "properties": { "fid": 72, "grid_id": "G_009_008", "row_index": 8, "col_index": 9, "x_svy": 23032.107, "y_svy": 29701.416, "lon": 103.78868009655451, "lat": 1.2848831711034705 }, "geometry": { "type": "Point", "coordinates": [ 23032.1074, 29701.416000000001077 ] } },
{ "type": "Feature", "properties": { "fid": 73, "grid_id": "G_009_009", "row_index": 9, "col_index": 9, "x_svy": 23032.107, "y_svy": 29451.416, "lon": 103.7886801357765, "lat": 1.2826222594975492 }, "geometry": { "type": "Point", "coordinates": [ 23032.1074, 29451.416000000001077 ] } },
{ "type": "Feature", "properties": { "fid": 74, "grid_id": "G_009_010", "row_index": 10, "col_index": 9, "x_svy": 23032.107, "y_svy": 29201.416, "lon": 103.78868017492935, "lat": 1.2803613478515299 }, "geometry": { "type": "Point", "coordinates": [ 23032.1074, 29201.416000000001077 ] } },
{ "type": "Feature", "properties": { "fid": 75, "grid_id": "G_009_011", "row_index": 11, "col_index": 9, "x_svy": 23040.388, "y_svy": 28969.251, "lon": 103.78875461348105, "lat": 1.2782617278895194 }, "geometry": { "type": "Point", "coordinates": [ 23040.387776213407051, 28969.250666306565108 ] } },
{ "type": "Feature", "properties": { "fid": 76, "grid_id": "G_009_012", "row_index": 12, "col_index": 9, "x_svy": 23153.223, "y_svy": 28825.101, "lon": 103.78976850276194, "lat": 1.2769581096733662 }, "geometry": { "type": "Point", "coordinates": [ 23153.223105272998509, 28825.101328391559946 ] } },
{ "type": "Feature", "properties": { "fid": 77, "grid_id": "G_010_005", "row_index": 5, "col_index": 10, "x_svy": 23189.58, "y_svy": 30349.846, "lon": 103.79009495032844, "lat": 1.2907473664955837 }, "geometry": { "type": "Point", "coordinates": [ 23189.57990911316665, 30349.845925235717004 ] } },
{ "type": "Feature", "properties": { "fid": 78, "grid_id": "G_010_006", "row_index": 6, "col_index": 10, "x_svy": 23270.597, "y_svy": 30187.707, "lon": 103.79082294983598, "lat": 1.2892810527582117 }, "geometry": { "type": "Point", "coordinates": [ 23270.597332523422665, 30187.707109840790508 ] } },
{ "type": "Feature", "properties": { "fid": 79, "grid_id": "G_010_007", "row_index": 7, "col_index": 10, "x_svy": 23282.107, "y_svy": 29951.416, "lon": 103.79092640783914, "lat": 1.2871441212542418 }, "geometry": { "type": "Point", "coordinates": [ 23282.1074, 29951.416000000001077 ] } },
{ "type": "Feature", "properties": { "fid": 80, "grid_id": "G_010_008", "row_index": 8, "col_index": 10, "x_svy": 23282.107, "y_svy": 29701.416, "lon": 103.79092644515366, "lat": 1.2848832096206912 }, "geometry": { "type": "Point", "coordinates": [ 23282.1074, 29701.416000000001077 ] } },
{ "type": "Feature", "properties": { "fid": 81, "grid_id": "G_010_009", "row_index": 9, "col_index": 10, "x_svy": 23282.107, "y_svy": 29451.416, "lon": 103.79092648240253, "lat": 1.2826222979469724 }, "geometry": { "type": "Point", "coordinates": [ 23282.1074, 29451.416000000001077 ] } },
{ "type": "Feature", "properties": { "fid": 82, "grid_id": "G_010_010", "row_index": 10, "col_index": 10, "x_svy": 23282.107, "y_svy": 29201.416, "lon": 103.79092651958572, "lat": 1.2803613862331555 }, "geometry": { "type": "Point", "coordinates": [ 23282.1074, 29201.416000000001077 ] } },
{ "type": "Feature", "properties": { "fid": 83, "grid_id": "G_010_011", "row_index": 11, "col_index": 10, "x_svy": 23282.107, "y_svy": 28951.416, "lon": 103.79092655670328, "lat": 1.2781004744793116 }, "geometry": { "type": "Point", "coordinates": [ 23282.1074, 28951.416000000001077 ] } },
{ "type": "Feature", "properties": { "fid": 84, "grid_id": "G_010_012", "row_index": 12, "col_index": 10, "x_svy": 23320.221, "y_svy": 28796.84, "lon": 103.79126904426593, "lat": 1.2767025531428777 }, "geometry": { "type": "Point", "coordinates": [ 23320.220999757129903, 28796.840420559256017 ] } },
{ "type": "Feature", "properties": { "fid": 85, "grid_id": "G_011_006", "row_index": 6, "col_index": 11, "x_svy": 23476.158, "y_svy": 30122.116, "lon": 103.79267000903359, "lat": 1.2886879003557483 }, "geometry": { "type": "Point", "coordinates": [ 23476.158323618092254, 30122.116005497169681 ] } },
{ "type": "Feature", "properties": { "fid": 86, "grid_id": "G_011_007", "row_index": 7, "col_index": 11, "x_svy": 23531.222, "y_svy": 29950.491, "lon": 103.79316479972604, "lat": 1.2871357920520385 }, "geometry": { "type": "Point", "coordinates": [ 23531.221642774180509, 29950.490967190700758 ] } },
{ "type": "Feature", "properties": { "fid": 87, "grid_id": "G_011_008", "row_index": 8, "col_index": 11, "x_svy": 23532.107, "y_svy": 29701.416, "lon": 103.79317279381844, "lat": 1.2848832461502504 }, "geometry": { "type": "Point", "coordinates": [ 23532.1074, 29701.416000000001077 ] } },
{ "type": "Feature", "properties": { "fid": 88, "grid_id": "G_011_009", "row_index": 9, "col_index": 11, "x_svy": 23532.107, "y_svy": 29451.416, "lon": 103.79317282909419, "lat": 1.2826223344122325 }, "geometry": { "type": "Point", "coordinates": [ 23532.1074, 29451.416000000001077 ] } },
{ "type": "Feature", "properties": { "fid": 89, "grid_id": "G_011_010", "row_index": 10, "col_index": 11, "x_svy": 23532.107, "y_svy": 29201.416, "lon": 103.79317286430775, "lat": 1.2803614226341165 }, "geometry": { "type": "Point", "coordinates": [ 23532.1074, 29201.416000000001077 ] } },
{ "type": "Feature", "properties": { "fid": 90, "grid_id": "G_011_011", "row_index": 11, "col_index": 11, "x_svy": 23532.107, "y_svy": 28951.416, "lon": 103.79317289945914, "lat": 1.278100510815974 }, "geometry": { "type": "Point", "coordinates": [ 23532.1074, 28951.416000000001077 ] } },
{ "type": "Feature", "properties": { "fid": 91, "grid_id": "G_011_012", "row_index": 12, "col_index": 11, "x_svy": 23545.578, "y_svy": 28758.704, "lon": 103.79329396214614, "lat": 1.2763576888280992 }, "geometry": { "type": "Point", "coordinates": [ 23545.577707726697554, 28758.703501689757104 ] } },
{ "type": "Feature", "properties": { "fid": 92, "grid_id": "G_012_007", "row_index": 7, "col_index": 12, "x_svy": 23759.977, "y_svy": 29906.878, "lon": 103.79522026455862, "lat": 1.2867414018501644 }, "geometry": { "type": "Point", "coordinates": [ 23759.976995158780483, 29906.877815326191921 ] } },
{ "type": "Feature", "properties": { "fid": 93, "grid_id": "G_012_008", "row_index": 8, "col_index": 12, "x_svy": 23782.107, "y_svy": 29701.416, "lon": 103.79541914254541, "lat": 1.2848832806921469 }, "geometry": { "type": "Point", "coordinates": [ 23782.1074, 29701.416000000001077 ] } },
{ "type": "Feature", "properties": { "fid": 94, "grid_id": "G_012_009", "row_index": 9, "col_index": 12, "x_svy": 23782.107, "y_svy": 29451.416, "lon": 103.79541917584802, "lat": 1.2826223688933289 }, "geometry": { "type": "Point", "coordinates": [ 23782.1074, 29451.416000000001077 ] } },
{ "type": "Feature", "properties": { "fid": 95, "grid_id": "G_012_010", "row_index": 10, "col_index": 12, "x_svy": 23782.107, "y_svy": 29201.416, "lon": 103.79541920909195, "lat": 1.2803614570544128 }, "geometry": { "type": "Point", "coordinates": [ 23782.1074, 29201.416000000001077 ] } },
{ "type": "Feature", "properties": { "fid": 96, "grid_id": "G_012_011", "row_index": 11, "col_index": 12, "x_svy": 23782.107, "y_svy": 28951.416, "lon": 103.79541924227719, "lat": 1.2781005451754701 }, "geometry": { "type": "Point", "coordinates": [ 23782.1074, 28951.416000000001077 ] } },
{ "type": "Feature", "properties": { "fid": 97, "grid_id": "G_012_012", "row_index": 12, "col_index": 12, "x_svy": 23790.106, "y_svy": 28717.53, "lon": 103.7954911469203, "lat": 1.2759853670271759 }, "geometry": { "type": "Point", "coordinates": [ 23790.106369177548913, 28717.530372173183423 ] } },
{ "type": "Feature", "properties": { "fid": 98, "grid_id": "G_012_013", "row_index": 13, "col_index": 12, "x_svy": 23899.438, "y_svy": 28573.82, "lon": 103.79647354647317, "lat": 1.2746857162650125 }, "geometry": { "type": "Point", "coordinates": [ 23899.437616313993203, 28573.820098410775245 ] } },
{ "type": "Feature", "properties": { "fid": 99, "grid_id": "G_013_007", "row_index": 7, "col_index": 13, "x_svy": 23943.89, "y_svy": 29849.405, "lon": 103.79687280295721, "lat": 1.2862216626786915 }, "geometry": { "type": "Point", "coordinates": [ 23943.889868067530188, 29849.40504254221014 ] } },
{ "type": "Feature", "properties": { "fid": 100, "grid_id": "G_013_008", "row_index": 8, "col_index": 13, "x_svy": 24023.631, "y_svy": 29691.053, "lon": 103.7975893280602, "lat": 1.2847895957422071 }, "geometry": { "type": "Point", "coordinates": [ 24023.630914409161051, 29691.053318946313084 ] } },
{ "type": "Feature", "properties": { "fid": 101, "grid_id": "G_013_009", "row_index": 9, "col_index": 13, "x_svy": 24032.107, "y_svy": 29451.416, "lon": 103.79766552266058, "lat": 1.2826224013902616 }, "geometry": { "type": "Point", "coordinates": [ 24032.1074, 29451.416000000001077 ] } },
{ "type": "Feature", "properties": { "fid": 102, "grid_id": "G_013_010", "row_index": 10, "col_index": 13, "x_svy": 24032.107, "y_svy": 29201.416, "lon": 103.79766555393485, "lat": 1.2803614894940445 }, "geometry": { "type": "Point", "coordinates": [ 24032.1074, 29201.416000000001077 ] } },
{ "type": "Feature", "properties": { "fid": 103, "grid_id": "G_013_011", "row_index": 11, "col_index": 13, "x_svy": 24032.107, "y_svy": 28951.416, "lon": 103.79766558515392, "lat": 1.2781005775578003 }, "geometry": { "type": "Point", "coordinates": [ 24032.1074, 28951.416000000001077 ] } },
{ "type": "Feature", "properties": { "fid": 104, "grid_id": "G_013_012", "row_index": 12, "col_index": 13, "x_svy": 24032.107, "y_svy": 28701.416, "lon": 103.79766561631776, "lat": 1.2758396655815998 }, "geometry": { "type": "Point", "coordinates": [ 24032.1074, 28701.416000000001077 ] } },
{ "type": "Feature", "properties": { "fid": 105, "grid_id": "G_013_013", "row_index": 13, "col_index": 13, "x_svy": 24067.297, "y_svy": 28545.413, "lon": 103.79798182348999, "lat": 1.2744288379595918 }, "geometry": { "type": "Point", "coordinates": [ 24067.296618087249954, 28545.413466144003905 ] } },
{ "type": "Feature", "properties": { "fid": 106, "grid_id": "G_014_008", "row_index": 8, "col_index": 14, "x_svy": 24263.608, "y_svy": 29634.985, "lon": 103.79974562682573, "lat": 1.2842825635472863 }, "geometry": { "type": "Point", "coordinates": [ 24263.608359918711358, 29634.985053015647281 ] } },
{ "type": "Feature", "properties": { "fid": 107, "grid_id": "G_014_009", "row_index": 9, "col_index": 14, "x_svy": 24282.107, "y_svy": 29451.416, "lon": 103.79991186952834, "lat": 1.2826224319030304 }, "geometry": { "type": "Point", "coordinates": [ 24282.1074, 29451.416000000001077 ] } },
{ "type": "Feature", "properties": { "fid": 108, "grid_id": "G_014_010", "row_index": 10, "col_index": 14, "x_svy": 24282.107, "y_svy": 29201.416, "lon": 103.79991189883299, "lat": 1.2803615199530103 }, "geometry": { "type": "Point", "coordinates": [ 24282.1074, 29201.416000000001077 ] } },
{ "type": "Feature", "properties": { "fid": 109, "grid_id": "G_014_011", "row_index": 11, "col_index": 14, "x_svy": 24282.107, "y_svy": 28951.416, "lon": 103.79991192808588, "lat": 1.2781006079629633 }, "geometry": { "type": "Point", "coordinates": [ 24282.1074, 28951.416000000001077 ] } },
{ "type": "Feature", "properties": { "fid": 110, "grid_id": "G_014_012", "row_index": 12, "col_index": 14, "x_svy": 24282.107, "y_svy": 28701.416, "lon": 103.79991195728704, "lat": 1.2758396959329603 }, "geometry": { "type": "Point", "coordinates": [ 24282.1074, 28701.416000000001077 ] } },
{ "type": "Feature", "properties": { "fid": 111, "grid_id": "G_014_013", "row_index": 13, "col_index": 14, "x_svy": 24295.801, "y_svy": 28506.144, "lon": 103.80003502480042, "lat": 1.2740737269350011 }, "geometry": { "type": "Point", "coordinates": [ 24295.80131654177967, 28506.144075434374827 ] } },
{ "type": "Feature", "properties": { "fid": 112, "grid_id": "G_015_008", "row_index": 8, "col_index": 15, "x_svy": 24517.02, "y_svy": 29595.944, "lon": 103.8020226385504, "lat": 1.2839295174861598 }, "geometry": { "type": "Point", "coordinates": [ 24517.020460246527364, 29595.943821041011688 ] } },
{ "type": "Feature", "properties": { "fid": 113, "grid_id": "G_015_009", "row_index": 9, "col_index": 15, "x_svy": 24532.107, "y_svy": 29451.416, "lon": 103.80215821644785, "lat": 1.282622460431635 }, "geometry": { "type": "Point", "coordinates": [ 24532.1074, 29451.416000000001077 ] } },
{ "type": "Feature", "properties": { "fid": 114, "grid_id": "G_015_010", "row_index": 10, "col_index": 15, "x_svy": 24532.107, "y_svy": 29201.416, "lon": 103.80215824378286, "lat": 1.2803615484313104 }, "geometry": { "type": "Point", "coordinates": [ 24532.1074, 29201.416000000001077 ] } },
{ "type": "Feature", "properties": { "fid": 115, "grid_id": "G_015_011", "row_index": 11, "col_index": 15, "x_svy": 24532.107, "y_svy": 28951.416, "lon": 103.80215827106959, "lat": 1.2781006363909597 }, "geometry": { "type": "Point", "coordinates": [ 24532.1074, 28951.416000000001077 ] } },
{ "type": "Feature", "properties": { "fid": 116, "grid_id": "G_015_012", "row_index": 12, "col_index": 15, "x_svy": 24532.107, "y_svy": 28701.416, "lon": 103.80215829830804, "lat": 1.2758397243106527 }, "geometry": { "type": "Point", "coordinates": [ 24532.1074, 28701.416000000001077 ] } },
{ "type": "Feature", "properties": { "fid": 117, "grid_id": "G_015_013", "row_index": 13, "col_index": 15, "x_svy": 24536.98, "y_svy": 28464.613, "lon": 103.80220210946892, "lat": 1.2736981577162139 }, "geometry": { "type": "Point", "coordinates": [ 24536.980373428672465, 28464.612553623515851 ] } },
{ "type": "Feature", "properties": { "fid": 118, "grid_id": "G_016_008", "row_index": 8, "col_index": 16, "x_svy": 24764.004, "y_svy": 29586.379, "lon": 103.80424188324781, "lat": 1.2838430472977487 }, "geometry": { "type": "Point", "coordinates": [ 24764.003965924301156, 29586.379476044476178 ] } },
{ "type": "Feature", "properties": { "fid": 119, "grid_id": "G_016_009", "row_index": 9, "col_index": 16, "x_svy": 24782.107, "y_svy": 29451.416, "lon": 103.80440456341563, "lat": 1.2826224869760749 }, "geometry": { "type": "Point", "coordinates": [ 24782.1074, 29451.416000000001077 ] } },
{ "type": "Feature", "properties": { "fid": 120, "grid_id": "G_016_010", "row_index": 10, "col_index": 16, "x_svy": 24782.107, "y_svy": 29201.416, "lon": 103.804404588781, "lat": 1.280361574928945 }, "geometry": { "type": "Point", "coordinates": [ 24782.1074, 29201.416000000001077 ] } },
{ "type": "Feature", "properties": { "fid": 121, "grid_id": "G_016_011", "row_index": 11, "col_index": 16, "x_svy": 24782.107, "y_svy": 28951.416, "lon": 103.80440461410156, "lat": 1.2781006628417888 }, "geometry": { "type": "Point", "coordinates": [ 24782.1074, 28951.416000000001077 ] } },
{ "type": "Feature", "properties": { "fid": 122, "grid_id": "G_016_012", "row_index": 12, "col_index": 16, "x_svy": 24782.107, "y_svy": 28701.416, "lon": 103.80440463937732, "lat": 1.2758397507146766 }, "geometry": { "type": "Point", "coordinates": [ 24782.1074, 28701.416000000001077 ] } },
{ "type": "Feature", "properties": { "fid": 123, "grid_id": "G_016_013", "row_index": 13, "col_index": 16, "x_svy": 24783.295, "y_svy": 28453.256, "lon": 103.80441533666415, "lat": 1.2735954807580827 }, "geometry": { "type": "Point", "coordinates": [ 24783.295137101951696, 28453.256196401755005 ] } },
{ "type": "Feature", "properties": { "fid": 124, "grid_id": "G_016_014", "row_index": 14, "col_index": 16, "x_svy": 24861.691, "y_svy": 28308.816, "lon": 103.80511976186681, "lat": 1.2722892213738299 }, "geometry": { "type": "Point", "coordinates": [ 24861.690579278914811, 28308.815908794287679 ] } },
{ "type": "Feature", "properties": { "fid": 125, "grid_id": "G_017_008", "row_index": 8, "col_index": 17, "x_svy": 24961.34, "y_svy": 29579.95, "lon": 103.80601502805287, "lat": 1.2837849208098857 }, "geometry": { "type": "Point", "coordinates": [ 24961.340279455464042, 29579.949972094840632 ] } },
{ "type": "Feature", "properties": { "fid": 126, "grid_id": "G_017_009", "row_index": 9, "col_index": 17, "x_svy": 25031.725, "y_svy": 29450.925, "lon": 103.80664747319499, "lat": 1.2826180705460921 }, "geometry": { "type": "Point", "coordinates": [ 25031.724859016561823, 29450.924942181944061 ] } },
{ "type": "Feature", "properties": { "fid": 127, "grid_id": "G_017_010", "row_index": 10, "col_index": 17, "x_svy": 25032.107, "y_svy": 29201.416, "lon": 103.80665093382392, "lat": 1.2803615994459139 }, "geometry": { "type": "Point", "coordinates": [ 25032.1074, 29201.416000000001077 ] } },
{ "type": "Feature", "properties": { "fid": 128, "grid_id": "G_017_011", "row_index": 11, "col_index": 17, "x_svy": 25032.107, "y_svy": 28951.416, "lon": 103.80665095717832, "lat": 1.2781006873154503 }, "geometry": { "type": "Point", "coordinates": [ 25032.1074, 28951.416000000001077 ] } },
{ "type": "Feature", "properties": { "fid": 129, "grid_id": "G_017_012", "row_index": 12, "col_index": 17, "x_svy": 25032.107, "y_svy": 28701.416, "lon": 103.8066509804914, "lat": 1.2758397751450312 }, "geometry": { "type": "Point", "coordinates": [ 25032.1074, 28701.416000000001077 ] } },
{ "type": "Feature", "properties": { "fid": 130, "grid_id": "G_017_013", "row_index": 13, "col_index": 17, "x_svy": 25032.107, "y_svy": 28451.416, "lon": 103.80665100376318, "lat": 1.2735788629347269 }, "geometry": { "type": "Point", "coordinates": [ 25032.1074, 28451.416000000001077 ] } },
{ "type": "Feature", "properties": { "fid": 131, "grid_id": "G_017_014", "row_index": 14, "col_index": 17, "x_svy": 25051.64, "y_svy": 28272.307, "lon": 103.80682653102301, "lat": 1.2719590640455054 }, "geometry": { "type": "Point", "coordinates": [ 25051.64037210396782, 28272.306802674465871 ] } },
{ "type": "Feature", "properties": { "fid": 132, "grid_id": "G_018_009", "row_index": 9, "col_index": 18, "x_svy": 25280.67, "y_svy": 29444.546, "lon": 103.8088843453135, "lat": 1.2825604017298569 }, "geometry": { "type": "Point", "coordinates": [ 25280.670315948995267, 29444.545735316860373 ] } },
{ "type": "Feature", "properties": { "fid": 133, "grid_id": "G_018_010", "row_index": 10, "col_index": 18, "x_svy": 25282.107, "y_svy": 29201.416, "lon": 103.80889727890815, "lat": 1.2803616219822158 }, "geometry": { "type": "Point", "coordinates": [ 25282.1074, 29201.416000000001077 ] } },
{ "type": "Feature", "properties": { "fid": 134, "grid_id": "G_018_011", "row_index": 11, "col_index": 18, "x_svy": 25282.107, "y_svy": 28951.416, "lon": 103.80889730029638, "lat": 1.2781007098119446 }, "geometry": { "type": "Point", "coordinates": [ 25282.1074, 28951.416000000001077 ] } },
{ "type": "Feature", "properties": { "fid": 135, "grid_id": "G_018_012", "row_index": 12, "col_index": 18, "x_svy": 25282.107, "y_svy": 28701.416, "lon": 103.80889732164678, "lat": 1.2758397976017177 }, "geometry": { "type": "Point", "coordinates": [ 25282.1074, 28701.416000000001077 ] } },
{ "type": "Feature", "properties": { "fid": 136, "grid_id": "G_018_013", "row_index": 13, "col_index": 18, "x_svy": 25282.107, "y_svy": 28451.416, "lon": 103.80889734295934, "lat": 1.2735788853516052 }, "geometry": { "type": "Point", "coordinates": [ 25282.1074, 28451.416000000001077 ] } },
{ "type": "Feature", "properties": { "fid": 137, "grid_id": "G_018_014", "row_index": 14, "col_index": 18, "x_svy": 25285.439, "y_svy": 28249.156, "lon": 103.80892729811214, "lat": 1.2717497130187596 }, "geometry": { "type": "Point", "coordinates": [ 25285.43926085601197, 28249.155542007771146 ] } },
{ "type": "Feature", "properties": { "fid": 138, "grid_id": "G_019_009", "row_index": 9, "col_index": 19, "x_svy": 25529.54, "y_svy": 29435.475, "lon": 103.81112053724692, "lat": 1.2824783873215149 }, "geometry": { "type": "Point", "coordinates": [ 25529.540057476882794, 29435.474736904925521 ] } },
{ "type": "Feature", "properties": { "fid": 139, "grid_id": "G_019_010", "row_index": 10, "col_index": 19, "x_svy": 25532.107, "y_svy": 29201.416, "lon": 103.81114362403022, "lat": 1.2803616425378521 }, "geometry": { "type": "Point", "coordinates": [ 25532.1074, 29201.416000000001077 ] } },
{ "type": "Feature", "properties": { "fid": 140, "grid_id": "G_019_011", "row_index": 11, "col_index": 19, "x_svy": 25532.107, "y_svy": 28951.416, "lon": 103.81114364345228, "lat": 1.2781007303312713 }, "geometry": { "type": "Point", "coordinates": [ 25532.1074, 28951.416000000001077 ] } },
{ "type": "Feature", "properties": { "fid": 141, "grid_id": "G_019_012", "row_index": 12, "col_index": 19, "x_svy": 25532.107, "y_svy": 28701.416, "lon": 103.81114366284, "lat": 1.275839818084735 }, "geometry": { "type": "Point", "coordinates": [ 25532.1074, 28701.416000000001077 ] } },
{ "type": "Feature", "properties": { "fid": 142, "grid_id": "G_019_013", "row_index": 13, "col_index": 19, "x_svy": 25532.107, "y_svy": 28451.416, "lon": 103.81114368219335, "lat": 1.2735789057983125 }, "geometry": { "type": "Point", "coordinates": [ 25532.1074, 28451.416000000001077 ] } },
{ "type": "Feature", "properties": { "fid": 143, "grid_id": "G_019_014", "row_index": 14, "col_index": 19, "x_svy": 25540.361, "y_svy": 28229.549, "lon": 103.81121786417221, "lat": 1.2715724156565751 }, "geometry": { "type": "Point", "coordinates": [ 25540.36137247437, 28229.548619197808875 ] } },
{ "type": "Feature", "properties": { "fid": 144, "grid_id": "G_020_009", "row_index": 9, "col_index": 20, "x_svy": 25769.156, "y_svy": 29402.784, "lon": 103.81327357842827, "lat": 1.2821827652260773 }, "geometry": { "type": "Point", "coordinates": [ 25769.155628946111392, 29402.784392987006868 ] } },
{ "type": "Feature", "properties": { "fid": 145, "grid_id": "G_020_010", "row_index": 10, "col_index": 20, "x_svy": 25782.107, "y_svy": 29201.416, "lon": 103.81338996918663, "lat": 1.2803616611128215 }, "geometry": { "type": "Point", "coordinates": [ 25782.1074, 29201.416000000001077 ] } },
{ "type": "Feature", "properties": { "fid": 146, "grid_id": "G_020_011", "row_index": 11, "col_index": 20, "x_svy": 25782.107, "y_svy": 28951.416, "lon": 103.81338998664253, "lat": 1.2781007488734299 }, "geometry": { "type": "Point", "coordinates": [ 25782.1074, 28951.416000000001077 ] } },
{ "type": "Feature", "properties": { "fid": 147, "grid_id": "G_020_012", "row_index": 12, "col_index": 20, "x_svy": 25782.107, "y_svy": 28701.416, "lon": 103.81339000406756, "lat": 1.2758398365940824 }, "geometry": { "type": "Point", "coordinates": [ 25782.1074, 28701.416000000001077 ] } },
{ "type": "Feature", "properties": { "fid": 148, "grid_id": "G_020_013", "row_index": 13, "col_index": 20, "x_svy": 25782.107, "y_svy": 28451.416, "lon": 103.81339002146171, "lat": 1.2735789242748496 }, "geometry": { "type": "Point", "coordinates": [ 25782.1074, 28451.416000000001077 ] } },
{ "type": "Feature", "properties": { "fid": 149, "grid_id": "G_020_014", "row_index": 14, "col_index": 20, "x_svy": 25782.133, "y_svy": 28201.442, "lon": 103.8133902675965, "lat": 1.2713182438100301 }, "geometry": { "type": "Point", "coordinates": [ 25782.132860702240578, 28201.441641467947193 ] } },
{ "type": "Feature", "properties": { "fid": 150, "grid_id": "G_020_015", "row_index": 15, "col_index": 20, "x_svy": 25825.962, "y_svy": 28027.611, "lon": 103.81378409816205, "lat": 1.269746184025198 }, "geometry": { "type": "Point", "coordinates": [ 25825.961846595524548, 28027.611065706001682 ] } },
{ "type": "Feature", "properties": { "fid": 151, "grid_id": "G_021_009", "row_index": 9, "col_index": 21, "x_svy": 25963.3, "y_svy": 29361.809, "lon": 103.81501804506145, "lat": 1.2818122072624027 }, "geometry": { "type": "Point", "coordinates": [ 25963.300186705284432, 29361.808551611084113 ] } },
{ "type": "Feature", "properties": { "fid": 152, "grid_id": "G_021_010", "row_index": 10, "col_index": 21, "x_svy": 26028.602, "y_svy": 29197.556, "lon": 103.81560481939812, "lat": 1.2803267700311936 }, "geometry": { "type": "Point", "coordinates": [ 26028.602237972034345, 29197.556113688646292 ] } },
{ "type": "Feature", "properties": { "fid": 153, "grid_id": "G_021_011", "row_index": 11, "col_index": 21, "x_svy": 26032.107, "y_svy": 28951.416, "lon": 103.81563632986368, "lat": 1.2781007654384207 }, "geometry": { "type": "Point", "coordinates": [ 26032.1074, 28951.416000000001077 ] } },
{ "type": "Feature", "properties": { "fid": 154, "grid_id": "G_021_012", "row_index": 12, "col_index": 21, "x_svy": 26032.107, "y_svy": 28701.416, "lon": 103.815636345326, "lat": 1.275839853129761 }, "geometry": { "type": "Point", "coordinates": [ 26032.1074, 28701.416000000001077 ] } },
{ "type": "Feature", "properties": { "fid": 155, "grid_id": "G_021_013", "row_index": 13, "col_index": 21, "x_svy": 26032.107, "y_svy": 28451.416, "lon": 103.81563636076095, "lat": 1.2735789407812161 }, "geometry": { "type": "Point", "coordinates": [ 26032.1074, 28451.416000000001077 ] } },
{ "type": "Feature", "properties": { "fid": 156, "grid_id": "G_021_014", "row_index": 14, "col_index": 21, "x_svy": 26032.107, "y_svy": 28201.416, "lon": 103.81563637616848, "lat": 1.2713180283928571 }, "geometry": { "type": "Point", "coordinates": [ 26032.1074, 28201.416000000001077 ] } },
{ "type": "Feature", "properties": { "fid": 157, "grid_id": "G_021_015", "row_index": 15, "col_index": 21, "x_svy": 26043.403, "y_svy": 27967.073, "lon": 103.81573788607258, "lat": 1.2691987151231945 }, "geometry": { "type": "Point", "coordinates": [ 26043.403073010060325, 27967.073225224477937 ] } },
{ "type": "Feature", "properties": { "fid": 158, "grid_id": "G_021_016", "row_index": 16, "col_index": 21, "x_svy": 26133.438, "y_svy": 27812.841, "lon": 103.81654689265447, "lat": 1.2678038991272098 }, "geometry": { "type": "Point", "coordinates": [ 26133.438330591026897, 27812.841092544847925 ] } },
{ "type": "Feature", "properties": { "fid": 159, "grid_id": "G_022_010", "row_index": 10, "col_index": 22, "x_svy": 26253.748, "y_svy": 29144.158, "lon": 103.81762784113972, "lat": 1.2798438731115371 }, "geometry": { "type": "Point", "coordinates": [ 26253.74782324026819, 29144.158399108902813 ] } },
{ "type": "Feature", "properties": { "fid": 160, "grid_id": "G_022_011", "row_index": 11, "col_index": 22, "x_svy": 26282.107, "y_svy": 28951.416, "lon": 103.81788267311219, "lat": 1.2781007800262432 }, "geometry": { "type": "Point", "coordinates": [ 26282.1074, 28951.416000000001077 ] } },
{ "type": "Feature", "properties": { "fid": 161, "grid_id": "G_022_012", "row_index": 12, "col_index": 22, "x_svy": 26282.107, "y_svy": 28701.416, "lon": 103.81788268661185, "lat": 1.2758398676917697 }, "geometry": { "type": "Point", "coordinates": [ 26282.1074, 28701.416000000001077 ] } },
{ "type": "Feature", "properties": { "fid": 162, "grid_id": "G_022_013", "row_index": 13, "col_index": 22, "x_svy": 26282.107, "y_svy": 28451.416, "lon": 103.81788270008758, "lat": 1.2735789553174119 }, "geometry": { "type": "Point", "coordinates": [ 26282.1074, 28451.416000000001077 ] } },
{ "type": "Feature", "properties": { "fid": 163, "grid_id": "G_022_014", "row_index": 14, "col_index": 22, "x_svy": 26282.107, "y_svy": 28201.416, "lon": 103.81788271353938, "lat": 1.2713180429032391 }, "geometry": { "type": "Point", "coordinates": [ 26282.1074, 28201.416000000001077 ] } },
{ "type": "Feature", "properties": { "fid": 164, "grid_id": "G_022_015", "row_index": 15, "col_index": 22, "x_svy": 26282.107, "y_svy": 27951.416, "lon": 103.81788272696726, "lat": 1.2690571304493234 }, "geometry": { "type": "Point", "coordinates": [ 26282.1074, 27951.416000000001077 ] } },
{ "type": "Feature", "properties": { "fid": 165, "grid_id": "G_022_016", "row_index": 16, "col_index": 22, "x_svy": 26308.68, "y_svy": 27762.588, "lon": 103.81812149680353, "lat": 1.2673494383990098 }, "geometry": { "type": "Point", "coordinates": [ 26308.679552016481466, 27762.588095224313292 ] } },
{ "type": "Feature", "properties": { "fid": 166, "grid_id": "G_023_010", "row_index": 10, "col_index": 23, "x_svy": 26447.986, "y_svy": 29089.725, "lon": 103.81937315092767, "lat": 1.2793516106560903 }, "geometry": { "type": "Point", "coordinates": [ 26447.986385808115301, 29089.725437239849271 ] } },
{ "type": "Feature", "properties": { "fid": 167, "grid_id": "G_023_011", "row_index": 11, "col_index": 23, "x_svy": 26528.838, "y_svy": 28946.865, "lon": 103.82009963944114, "lat": 1.2780596339542496 }, "geometry": { "type": "Point", "coordinates": [ 26528.837958236261329, 28946.86490243906519 ] } },
{ "type": "Feature", "properties": { "fid": 168, "grid_id": "G_023_012", "row_index": 12, "col_index": 23, "x_svy": 26532.107, "y_svy": 28701.416, "lon": 103.82012902792161, "lat": 1.2758398802801092 }, "geometry": { "type": "Point", "coordinates": [ 26532.1074, 28701.416000000001077 ] } },
{ "type": "Feature", "properties": { "fid": 169, "grid_id": "G_023_013", "row_index": 13, "col_index": 23, "x_svy": 26532.107, "y_svy": 28451.416, "lon": 103.82012903943813, "lat": 1.2735789678834366 }, "geometry": { "type": "Point", "coordinates": [ 26532.1074, 28451.416000000001077 ] } },
{ "type": "Feature", "properties": { "fid": 170, "grid_id": "G_023_014", "row_index": 14, "col_index": 23, "x_svy": 26532.107, "y_svy": 28201.416, "lon": 103.8201290509342, "lat": 1.2713180554469492 }, "geometry": { "type": "Point", "coordinates": [ 26532.1074, 28201.416000000001077 ] } },
{ "type": "Feature", "properties": { "fid": 171, "grid_id": "G_023_015", "row_index": 15, "col_index": 23, "x_svy": 26532.107, "y_svy": 27951.416, "lon": 103.82012906240983, "lat": 1.2690571429707185 }, "geometry": { "type": "Point", "coordinates": [ 26532.1074, 27951.416000000001077 ] } },
{ "type": "Feature", "properties": { "fid": 172, "grid_id": "G_023_016", "row_index": 16, "col_index": 23, "x_svy": 26537.429, "y_svy": 27708.621, "lon": 103.82017689253999, "lat": 1.2668613868070138 }, "geometry": { "type": "Point", "coordinates": [ 26537.42929493574411, 27708.620624946910539 ] } },
{ "type": "Feature", "properties": { "fid": 173, "grid_id": "G_024_011", "row_index": 11, "col_index": 24, "x_svy": 26775.033, "y_svy": 28918.889, "lon": 103.82231179879697, "lat": 1.27780664261794 }, "geometry": { "type": "Point", "coordinates": [ 26775.033444029599195, 28918.889266076341301 ] } },
{ "type": "Feature", "properties": { "fid": 174, "grid_id": "G_024_012", "row_index": 12, "col_index": 24, "x_svy": 26782.107, "y_svy": 28701.416, "lon": 103.82237536925182, "lat": 1.275839890894779 }, "geometry": { "type": "Point", "coordinates": [ 26782.1074, 28701.416000000001077 ] } },
{ "type": "Feature", "properties": { "fid": 175, "grid_id": "G_024_013", "row_index": 13, "col_index": 24, "x_svy": 26782.107, "y_svy": 28451.416, "lon": 103.82237537880913, "lat": 1.2735789784792901 }, "geometry": { "type": "Point", "coordinates": [ 26782.1074, 28451.416000000001077 ] } },
{ "type": "Feature", "properties": { "fid": 176, "grid_id": "G_024_014", "row_index": 14, "col_index": 24, "x_svy": 26782.107, "y_svy": 28201.416, "lon": 103.82237538834946, "lat": 1.2713180660239867 }, "geometry": { "type": "Point", "coordinates": [ 26782.1074, 28201.416000000001077 ] } },
{ "type": "Feature", "properties": { "fid": 177, "grid_id": "G_024_015", "row_index": 15, "col_index": 24, "x_svy": 26782.107, "y_svy": 27951.416, "lon": 103.82237539787285, "lat": 1.2690571535289397 }, "geometry": { "type": "Point", "coordinates": [ 26782.1074, 27951.416000000001077 ] } },
{ "type": "Feature", "properties": { "fid": 178, "grid_id": "G_024_016", "row_index": 16, "col_index": 24, "x_svy": 26781.833, "y_svy": 27703.589, "lon": 103.82237293956014, "lat": 1.2668158944724945 }, "geometry": { "type": "Point", "coordinates": [ 26781.832759513210476, 27703.589180994989874 ] } },
{ "type": "Feature", "properties": { "fid": 179, "grid_id": "G_025_011", "row_index": 11, "col_index": 25, "x_svy": 27021.397, "y_svy": 28888.241, "lon": 103.82452546430359, "lat": 1.2775294810220543 }, "geometry": { "type": "Point", "coordinates": [ 27021.396589559288259, 28888.241219264033134 ] } },
{ "type": "Feature", "properties": { "fid": 180, "grid_id": "G_025_012", "row_index": 12, "col_index": 25, "x_svy": 27032.107, "y_svy": 28701.416, "lon": 103.824621710599, "lat": 1.2758398995357791 }, "geometry": { "type": "Point", "coordinates": [ 27032.1074, 28701.416000000001077 ] } },
{ "type": "Feature", "properties": { "fid": 181, "grid_id": "G_025_013", "row_index": 13, "col_index": 25, "x_svy": 27032.107, "y_svy": 28451.416, "lon": 103.82462171819709, "lat": 1.2735789871049725 }, "geometry": { "type": "Point", "coordinates": [ 27032.1074, 28451.416000000001077 ] } },
{ "type": "Feature", "properties": { "fid": 182, "grid_id": "G_025_014", "row_index": 14, "col_index": 25, "x_svy": 27032.107, "y_svy": 28201.416, "lon": 103.8246217257817, "lat": 1.2713180746343515 }, "geometry": { "type": "Point", "coordinates": [ 27032.1074, 28201.416000000001077 ] } },
{ "type": "Feature", "properties": { "fid": 183, "grid_id": "G_025_015", "row_index": 15, "col_index": 25, "x_svy": 27032.107, "y_svy": 27951.416, "lon": 103.82462173335281, "lat": 1.269057162123987 }, "geometry": { "type": "Point", "coordinates": [ 27032.1074, 27951.416000000001077 ] } },
{ "type": "Feature", "properties": { "fid": 184, "grid_id": "G_025_016", "row_index": 16, "col_index": 25, "x_svy": 27026.017, "y_svy": 27710.889, "lon": 103.82456701882248, "lat": 1.2668819173966512 }, "geometry": { "type": "Point", "coordinates": [ 27026.017275903086556, 27710.888724598418776 ] } },
{ "type": "Feature", "properties": { "fid": 185, "grid_id": "G_026_011", "row_index": 11, "col_index": 26, "x_svy": 27198.259, "y_svy": 28859.075, "lon": 103.82611464200791, "lat": 1.2772657157495071 }, "geometry": { "type": "Point", "coordinates": [ 27198.259282852573961, 28859.074867994615488 ] } },
{ "type": "Feature", "properties": { "fid": 186, "grid_id": "G_026_012", "row_index": 12, "col_index": 26, "x_svy": 27271.988, "y_svy": 28690.408, "lon": 103.82677712400522, "lat": 1.2757403525481181 }, "geometry": { "type": "Point", "coordinates": [ 27271.98781089620752, 28690.407897428540309 ] } },
{ "type": "Feature", "properties": { "fid": 187, "grid_id": "G_026_013", "row_index": 13, "col_index": 26, "x_svy": 27282.107, "y_svy": 28451.416, "lon": 103.82686805759853, "lat": 1.2735789937604838 }, "geometry": { "type": "Point", "coordinates": [ 27282.1074, 28451.416000000001077 ] } },
{ "type": "Feature", "properties": { "fid": 188, "grid_id": "G_026_014", "row_index": 14, "col_index": 26, "x_svy": 27282.107, "y_svy": 28201.416, "lon": 103.82686806322742, "lat": 1.2713180812780442 }, "geometry": { "type": "Point", "coordinates": [ 27282.1074, 28201.416000000001077 ] } },
{ "type": "Feature", "properties": { "fid": 189, "grid_id": "G_026_015", "row_index": 15, "col_index": 26, "x_svy": 27278.267, "y_svy": 27955.34, "lon": 103.82683356452911, "lat": 1.269092660233448 }, "geometry": { "type": "Point", "coordinates": [ 27278.267342649865896, 27955.340473410247796 ] } },
{ "type": "Feature", "properties": { "fid": 190, "grid_id": "G_026_016", "row_index": 16, "col_index": 26, "x_svy": 27216.781, "y_svy": 27772.361, "lon": 103.82628109349058, "lat": 1.2674378578360803 }, "geometry": { "type": "Point", "coordinates": [ 27216.781034092458867, 27772.361156214410585 ] } },
{ "type": "Feature", "properties": { "fid": 191, "grid_id": "G_027_012", "row_index": 12, "col_index": 27, "x_svy": 27464.557, "y_svy": 28624.175, "lon": 103.82850742754545, "lat": 1.2751413703234036 }, "geometry": { "type": "Point", "coordinates": [ 27464.556771535233565, 28624.175116095553676 ] } },
{ "type": "Feature", "properties": { "fid": 192, "grid_id": "G_027_013", "row_index": 13, "col_index": 27, "x_svy": 27527.967, "y_svy": 28447.093, "lon": 103.82907719054414, "lat": 1.2735399009325794 }, "geometry": { "type": "Point", "coordinates": [ 27527.966604340592312, 28447.092806136264699 ] } },
{ "type": "Feature", "properties": { "fid": 193, "grid_id": "G_027_014", "row_index": 14, "col_index": 27, "x_svy": 27530.47, "y_svy": 28203.075, "lon": 103.82909968500998, "lat": 1.2713330871965542 }, "geometry": { "type": "Point", "coordinates": [ 27530.469662017090741, 28203.074762298470887 ] } },
{ "type": "Feature", "properties": { "fid": 194, "grid_id": "G_027_015", "row_index": 15, "col_index": 27, "x_svy": 27475.443, "y_svy": 28014.515, "lon": 103.82860525617889, "lat": 1.2696278142031858 }, "geometry": { "type": "Point", "coordinates": [ 27475.443209260894946, 28014.514599980757339 ] } },
{ "type": "Feature", "properties": { "fid": 195, "grid_id": "G_028_013", "row_index": 13, "col_index": 28, "x_svy": 27731.465, "y_svy": 28388.231, "lon": 103.83090569674189, "lat": 1.2730075808337473 }, "geometry": { "type": "Point", "coordinates": [ 27731.464984095615364, 28388.231340995153005 ] } },
{ "type": "Feature", "properties": { "fid": 196, "grid_id": "G_028_014", "row_index": 14, "col_index": 28, "x_svy": 27734.021, "y_svy": 28256.629, "lon": 103.83092866342025, "lat": 1.2718174191080704 }, "geometry": { "type": "Point", "coordinates": [ 27734.020873598565231, 28256.629415924162458 ] } }
]
}
